{
"type": "FeatureCollection",
"name": "shelters",
"crs": { "type": "name", "properties": { "name": "urn:ogc:def:crs:OGC:1.3:CRS84" } },
"features": [
{ "type": "Feature", "properties": { "shelter_id": "27260042", "name": "두리봉경로당", "address": "대구광역시 수성구 달구벌대로530길 92", "latitude": 35.8523137, "longitude": 128.651269, "capacity": 39.0, "shelter_type": "003", "weekday_open": true, "weekend_open": false, "night_open": false }, "geometry": { "type": "Point", "coordinates": [ 128.651269, 35.8523137 ] } },
{ "type": "Feature", "properties": { "shelter_id": "27260097", "name": "지산1동경로당", "address": "대구광역시 수성구 지산로11길 6-19", "latitude": 35.8270078, "longitude": 128.6332391, "capacity": 38.0, "shelter_type": "003", "weekday_open": true, "weekend_open": false, "night_open": false }, "geometry": { "type": "Point", "coordinates": [ 128.6332391, 35.8270078 ] } },
{ "type": "Feature", "properties": { "shelter_id": "27260118", "name": "고산건강생활지원센터", "address": "대구광역시 수성구 욱수천로 99 (고산권보건복지센터)", "latitude": 35.836979, "longitude": 128.712808, "capacity": 9.0, "shelter_type": "001", "weekday_open": true, "weekend_open": false, "night_open": false }, "geometry": { "type": "Point", "coordinates": [ 128.712808, 35.836979 ] } },
{ "type": "Feature", "properties": { "shelter_id": "27260119", "name": "고산도서관", "address": "대구광역시 수성구 달구벌대로650길 6 (신매동)", "latitude": 35.8379159, "longitude": 128.7106103, "capacity": 30.0, "shelter_type": "001", "weekday_open": true, "weekend_open": true, "night_open": false }, "geometry": { "type": "Point", "coordinates": [ 128.710610300000013, 35.8379159 ] } },
{ "type": "Feature", "properties": { "shelter_id": "27260052", "name": "한마음경로당", "address": "대구광역시 수성구 들안로52길 35-1", "latitude": 35.8527872, "longitude": 128.6190858, "capacity": 24.0, "shelter_type": "003", "weekday_open": true, "weekend_open": false, "night_open": false }, "geometry": { "type": "Point", "coordinates": [ 128.6190858, 35.8527872 ] } },
{ "type": "Feature", "properties": { "shelter_id": "27260043", "name": "수성1가제2경로당", "address": "대구광역시 수성구 달구벌대로456길 11", "latitude": 35.8594063, "longitude": 128.6113895, "capacity": 22.0, "shelter_type": "003", "weekday_open": true, "weekend_open": false, "night_open": false }, "geometry": { "type": "Point", "coordinates": [ 128.6113895, 35.8594063 ] } },
{ "type": "Feature", "properties": { "shelter_id": "27260053", "name": "수성2가참마음경로당", "address": "대구광역시 수성구 수성로60길 45-1", "latitude": 35.852451, "longitude": 128.6160921, "capacity": 23.0, "shelter_type": "003", "weekday_open": true, "weekend_open": false, "night_open": false }, "geometry": { "type": "Point", "coordinates": [ 128.6160921, 35.852451 ] } },
{ "type": "Feature", "properties": { "shelter_id": "27260090", "name": "황금119안전센터", "address": "대구광역시 수성구 동대구로12길 41 (지산동)", "latitude": 35.8355675, "longitude": 128.6264867, "capacity": 5.0, "shelter_type": "001", "weekday_open": true, "weekend_open": false, "night_open": true }, "geometry": { "type": "Point", "coordinates": [ 128.626486699999987, 35.8355675 ] } },
{ "type": "Feature", "properties": { "shelter_id": "27260091", "name": "지산1동행정복지센터", "address": "대구광역시 수성구 지범로21길 16 (지산동)", "latitude": 35.8249315, "longitude": 128.6370116, "capacity": 5.0, "shelter_type": "001", "weekday_open": true, "weekend_open": true, "night_open": false }, "geometry": { "type": "Point", "coordinates": [ 128.6370116, 35.8249315 ] } },
{ "type": "Feature", "properties": { "shelter_id": "27260019", "name": "범어4동제1경로당", "address": "대구광역시 수성구 청호로85길 46 (범어4동경로당)", "latitude": 35.856821, "longitude": 128.639233, "capacity": 40.0, "shelter_type": "003", "weekday_open": true, "weekend_open": false, "night_open": false }, "geometry": { "type": "Point", "coordinates": [ 128.639233, 35.856821 ] } },
{ "type": "Feature", "properties": { "shelter_id": "27260116", "name": "iM뱅크시지지점", "address": "대구광역시 수성구 달구벌대로 3196 (신매동)", "latitude": 35.8404849, "longitude": 128.7062121, "capacity": 7.0, "shelter_type": "004", "weekday_open": true, "weekend_open": false, "night_open": false }, "geometry": { "type": "Point", "coordinates": [ 128.706212099999988, 35.8404849 ] } },
{ "type": "Feature", "properties": { "shelter_id": "27260117", "name": "고산노인복지관", "address": "대구광역시 수성구 욱수천로 99 (고산권보건복지센터)", "latitude": 35.836979, "longitude": 128.712808, "capacity": 260.0, "shelter_type": "003", "weekday_open": true, "weekend_open": false, "night_open": false }, "geometry": { "type": "Point", "coordinates": [ 128.712808, 35.836979 ] } },
{ "type": "Feature", "properties": { "shelter_id": "2726000233", "name": "연호동제2경로당", "address": "대구광역시 수성구 달구벌대로569길 20 (연호동)", "latitude": 35.8476904, "longitude": 128.6729133, "capacity": 44.0, "shelter_type": "003", "weekday_open": true, "weekend_open": false, "night_open": false }, "geometry": { "type": "Point", "coordinates": [ 128.6729133, 35.8476904 ] } },
{ "type": "Feature", "properties": { "shelter_id": "27260127", "name": "대흥경로당", "address": "대구광역시 수성구 월드컵로6길 54", "latitude": 35.831713, "longitude": 128.684597, "capacity": 36.0, "shelter_type": "003", "weekday_open": true, "weekend_open": false, "night_open": false }, "geometry": { "type": "Point", "coordinates": [ 128.684597, 35.831713 ] } },
{ "type": "Feature", "properties": { "shelter_id": "27260128", "name": "연호경로당", "address": "대구광역시 수성구 범안로91길 70", "latitude": 35.837486, "longitude": 128.6676607, "capacity": 30.0, "shelter_type": "003", "weekday_open": true, "weekend_open": false, "night_open": false }, "geometry": { "type": "Point", "coordinates": [ 128.6676607, 35.837486 ] } },
{ "type": "Feature", "properties": { "shelter_id": "27260129", "name": "가천경로당", "address": "대구광역시 수성구 고모로24길 25 (가천경로당)", "latitude": 35.852532, "longitude": 128.686217, "capacity": 57.0, "shelter_type": "003", "weekday_open": true, "weekend_open": false, "night_open": false }, "geometry": { "type": "Point", "coordinates": [ 128.686217, 35.852532 ] } },
{ "type": "Feature", "properties": { "shelter_id": "27260130", "name": "고모경로당", "address": "대구광역시 수성구 고모로39길 20", "latitude": 35.857343, "longitude": 128.676851, "capacity": 42.0, "shelter_type": "003", "weekday_open": true, "weekend_open": false, "night_open": false }, "geometry": { "type": "Point", "coordinates": [ 128.676851, 35.857343 ] } },
{ "type": "Feature", "properties": { "shelter_id": "27260131", "name": "노변경로당", "address": "대구광역시 수성구 노변로 77", "latitude": 35.838473, "longitude": 128.699974, "capacity": 58.0, "shelter_type": "003", "weekday_open": true, "weekend_open": false, "night_open": false }, "geometry": { "type": "Point", "coordinates": [ 128.699974, 35.838473 ] } },
{ "type": "Feature", "properties": { "shelter_id": "27260132", "name": "이천경로당", "address": "대구광역시 수성구 달구벌대로574길 192-1 (이천경로당)", "latitude": 35.838457, "longitude": 128.654988, "capacity": 38.0, "shelter_type": "003", "weekday_open": true, "weekend_open": false, "night_open": false }, "geometry": { "type": "Point", "coordinates": [ 128.654988, 35.838457 ] } },
{ "type": "Feature", "properties": { "shelter_id": "27260078", "name": "상동제2경로당", "address": "대구광역시 수성구 수성로15길 42-6", "latitude": 35.8330811, "longitude": 128.6089288, "capacity": 46.0, "shelter_type": "003", "weekday_open": true, "weekend_open": false, "night_open": false }, "geometry": { "type": "Point", "coordinates": [ 128.6089288, 35.8330811 ] } },
{ "type": "Feature", "properties": { "shelter_id": "27260079", "name": "상동공원경로당", "address": "대구광역시 수성구 들안로13길 118", "latitude": 35.839368, "longitude": 128.615384, "capacity": 49.0, "shelter_type": "003", "weekday_open": true, "weekend_open": false, "night_open": false }, "geometry": { "type": "Point", "coordinates": [ 128.615384, 35.839368 ] } },
{ "type": "Feature", "properties": { "shelter_id": "27260098", "name": "거성경로당", "address": "대구광역시 수성구 용학로48길 25-1 (지산동)", "latitude": 35.819134, "longitude": 128.6352074, "capacity": 20.0, "shelter_type": "003", "weekday_open": true, "weekend_open": false, "night_open": false }, "geometry": { "type": "Point", "coordinates": [ 128.635207400000013, 35.819134 ] } },
{ "type": "Feature", "properties": { "shelter_id": "27260099", "name": "지산2동행정복지센터", "address": "대구광역시 수성구 용학로33길 9 (지산동)", "latitude": 35.8230826, "longitude": 128.6280072, "capacity": 20.0, "shelter_type": "001", "weekday_open": true, "weekend_open": true, "night_open": false }, "geometry": { "type": "Point", "coordinates": [ 128.628007200000013, 35.8230826 ] } },
{ "type": "Feature", "properties": { "shelter_id": "27260100", "name": "지산2동경로당", "address": "대구광역시 수성구 용학로33길 17-16 (지산동)", "latitude": 35.8238005, "longitude": 128.6276978, "capacity": 20.0, "shelter_type": "003", "weekday_open": true, "weekend_open": false, "night_open": false }, "geometry": { "type": "Point", "coordinates": [ 128.6276978, 35.8238005 ] } },
{ "type": "Feature", "properties": { "shelter_id": "27260034", "name": "만촌119안전센터", "address": "대구광역시 수성구 달구벌대로 2658 (만촌동)", "latitude": 35.855451, "longitude": 128.65212, "capacity": 8.0, "shelter_type": "001", "weekday_open": true, "weekend_open": false, "night_open": false }, "geometry": { "type": "Point", "coordinates": [ 128.65212, 35.855451 ] } },
{ "type": "Feature", "properties": { "shelter_id": "27260027", "name": "만촌1동제1경로당", "address": "대구광역시 수성구 만촌로24길 37-20", "latitude": 35.8717085, "longitude": 128.6421104, "capacity": 46.0, "shelter_type": "003", "weekday_open": true, "weekend_open": false, "night_open": false }, "geometry": { "type": "Point", "coordinates": [ 128.6421104, 35.8717085 ] } },
{ "type": "Feature", "properties": { "shelter_id": "27260028", "name": "느지경로당", "address": "대구광역시 수성구 화랑로40길 46", "latitude": 35.8767287, "longitude": 128.6484207, "capacity": 54.0, "shelter_type": "003", "weekday_open": true, "weekend_open": false, "night_open": false }, "geometry": { "type": "Point", "coordinates": [ 128.6484207, 35.8767287 ] } },
{ "type": "Feature", "properties": { "shelter_id": "27260029", "name": "샘골경로당", "address": "대구광역시 수성구 공경로2길 21", "latitude": 35.869705, "longitude": 128.6462575, "capacity": 35.0, "shelter_type": "003", "weekday_open": true, "weekend_open": false, "night_open": false }, "geometry": { "type": "Point", "coordinates": [ 128.6462575, 35.869705 ] } },
{ "type": "Feature", "properties": { "shelter_id": "27260023", "name": "유신경로당", "address": "대구광역시 수성구 청호로88안길 29-3", "latitude": 35.856198, "longitude": 128.642194, "capacity": 24.0, "shelter_type": "003", "weekday_open": true, "weekend_open": false, "night_open": false }, "geometry": { "type": "Point", "coordinates": [ 128.642194, 35.856198 ] } },
{ "type": "Feature", "properties": { "shelter_id": "27260081", "name": "상동119안전센터", "address": "대구광역시 수성구 파동로51길 5 (파동)", "latitude": 35.825112, "longitude": 128.609511, "capacity": 5.0, "shelter_type": "001", "weekday_open": true, "weekend_open": false, "night_open": true }, "geometry": { "type": "Point", "coordinates": [ 128.609511, 35.825112 ] } },
{ "type": "Feature", "properties": { "shelter_id": "27260082", "name": "파동행정복지센터", "address": "대구광역시 수성구 파동로22길 7", "latitude": 35.813577, "longitude": 128.617544, "capacity": 5.0, "shelter_type": "001", "weekday_open": true, "weekend_open": true, "night_open": false }, "geometry": { "type": "Point", "coordinates": [ 128.617544, 35.813577 ] } },
{ "type": "Feature", "properties": { "shelter_id": "27260125", "name": "청곡복지관", "address": "대구광역시 수성구 노변공원로 49-1 (청곡사회복지관)", "latitude": 35.837464, "longitude": 128.698515, "capacity": 30.0, "shelter_type": "001", "weekday_open": true, "weekend_open": false, "night_open": false }, "geometry": { "type": "Point", "coordinates": [ 128.698515, 35.837464 ] } },
{ "type": "Feature", "properties": { "shelter_id": "27260126", "name": "iM뱅크노변지점", "address": "대구광역시 수성구 시지로 55 (시지동, 고산노변타운)", "latitude": 35.8394554, "longitude": 128.6962831, "capacity": 25.0, "shelter_type": "004", "weekday_open": true, "weekend_open": false, "night_open": false }, "geometry": { "type": "Point", "coordinates": [ 128.696283099999988, 35.8394554 ] } },
{ "type": "Feature", "properties": { "shelter_id": "27260017", "name": "iM뱅크범어동지점", "address": "대구광역시 수성구  달구벌대로  2387   (범어동)", "latitude": 35.8596651, "longitude": 128.6236615, "capacity": 20.0, "shelter_type": "004", "weekday_open": true, "weekend_open": false, "night_open": false }, "geometry": { "type": "Point", "coordinates": [ 128.6236615, 35.8596651 ] } },
{ "type": "Feature", "properties": { "shelter_id": "27260018", "name": "범어4동행정복지센터", "address": "대구광역시 수성구 달구벌대로504길 26 (범어동)", "latitude": 35.8563233, "longitude": 128.6380672, "capacity": 54.0, "shelter_type": "001", "weekday_open": true, "weekend_open": true, "night_open": false }, "geometry": { "type": "Point", "coordinates": [ 128.6380672, 35.8563233 ] } },
{ "type": "Feature", "properties": { "shelter_id": "27260122", "name": "욱수공원노인정", "address": "대구광역시 수성구 달구벌대로650길 59-6 (신매동)", "latitude": 35.8329089, "longitude": 128.7090994, "capacity": 28.0, "shelter_type": "003", "weekday_open": true, "weekend_open": false, "night_open": false }, "geometry": { "type": "Point", "coordinates": [ 128.709099400000014, 35.8329089 ] } },
{ "type": "Feature", "properties": { "shelter_id": "27260123", "name": "고산2동행정복지센터", "address": "대구광역시 수성구 달구벌대로 3091 (시지동)", "latitude": 35.8436212, "longitude": 128.6951983, "capacity": 50.0, "shelter_type": "001", "weekday_open": true, "weekend_open": true, "night_open": false }, "geometry": { "type": "Point", "coordinates": [ 128.695198299999987, 35.8436212 ] } },
{ "type": "Feature", "properties": { "shelter_id": "27260014", "name": "범어3동행정복지센터", "address": "대구광역시 수성구 상록로 42 (범어동)", "latitude": 35.8633436, "longitude": 128.6242524, "capacity": 10.0, "shelter_type": "001", "weekday_open": true, "weekend_open": true, "night_open": false }, "geometry": { "type": "Point", "coordinates": [ 128.624252399999989, 35.8633436 ] } },
{ "type": "Feature", "properties": { "shelter_id": "27260015", "name": "범어3동제1경로당", "address": "대구광역시 수성구 들안로78길 46 (범어동)", "latitude": 35.8654434, "longitude": 128.6202478, "capacity": 15.0, "shelter_type": "003", "weekday_open": true, "weekend_open": false, "night_open": false }, "geometry": { "type": "Point", "coordinates": [ 128.620247799999987, 35.8654434 ] } },
{ "type": "Feature", "properties": { "shelter_id": "27260030", "name": "만촌2동만촌경로당", "address": "대구광역시 수성구 동원로6길 50-13 (만촌동)", "latitude": 35.8621881, "longitude": 128.6430305, "capacity": 34.0, "shelter_type": "003", "weekday_open": true, "weekend_open": false, "night_open": false }, "geometry": { "type": "Point", "coordinates": [ 128.6430305, 35.8621881 ] } },
{ "type": "Feature", "properties": { "shelter_id": "27260031", "name": "만촌2동행정복지센터", "address": "대구광역시 수성구 만촌로 67 (만촌2동행정복지센터)", "latitude": 35.864881, "longitude": 128.643218, "capacity": 12.0, "shelter_type": "001", "weekday_open": true, "weekend_open": true, "night_open": false }, "geometry": { "type": "Point", "coordinates": [ 128.643218, 35.864881 ] } },
{ "type": "Feature", "properties": { "shelter_id": "27260124", "name": "시지경로당", "address": "대구광역시 수성구 달구벌대로619길 2 (시지동)", "latitude": 35.8433179, "longitude": 128.6965376, "capacity": 33.0, "shelter_type": "003", "weekday_open": true, "weekend_open": false, "night_open": false }, "geometry": { "type": "Point", "coordinates": [ 128.6965376, 35.8433179 ] } },
{ "type": "Feature", "properties": { "shelter_id": "27260033", "name": "지장경로당", "address": "대구광역시 수성구 무열로 65-1", "latitude": 35.8645848, "longitude": 128.6488241, "capacity": 44.0, "shelter_type": "003", "weekday_open": true, "weekend_open": false, "night_open": false }, "geometry": { "type": "Point", "coordinates": [ 128.648824100000013, 35.8645848 ] } },
{ "type": "Feature", "properties": { "shelter_id": "27260012", "name": "범어도서관", "address": "대구광역시 수성구 달구벌대로 2451", "latitude": 35.859517, "longitude": 128.630672, "capacity": 18.0, "shelter_type": "001", "weekday_open": true, "weekend_open": true, "night_open": false }, "geometry": { "type": "Point", "coordinates": [ 128.630672, 35.859517 ] } },
{ "type": "Feature", "properties": { "shelter_id": "27260013", "name": "범어2동제2경로당", "address": "대구광역시 수성구 동대구로80길 73-3", "latitude": 35.866225, "longitude": 128.631117, "capacity": 24.0, "shelter_type": "003", "weekday_open": true, "weekend_open": false, "night_open": false }, "geometry": { "type": "Point", "coordinates": [ 128.631117, 35.866225 ] } },
{ "type": "Feature", "properties": { "shelter_id": "27260137", "name": "사월동경로당", "address": "대구광역시 수성구 달구벌대로 3321-4", "latitude": 35.836538, "longitude": 128.719466, "capacity": 36.0, "shelter_type": "003", "weekday_open": true, "weekend_open": false, "night_open": false }, "geometry": { "type": "Point", "coordinates": [ 128.719466, 35.836538 ] } },
{ "type": "Feature", "properties": { "shelter_id": "27260138", "name": "매호경로당", "address": "대구광역시 수성구 천을로31길 40 (매호경로당)", "latitude": 35.846865, "longitude": 128.708847, "capacity": 19.0, "shelter_type": "003", "weekday_open": true, "weekend_open": false, "night_open": false }, "geometry": { "type": "Point", "coordinates": [ 128.708847, 35.846865 ] } },
{ "type": "Feature", "properties": { "shelter_id": "27260080", "name": "파동제2경로당", "address": "대구광역시 수성구 파동로18길 56 (파동)", "latitude": 35.8114729, "longitude": 128.6212483, "capacity": 40.0, "shelter_type": "003", "weekday_open": true, "weekend_open": false, "night_open": false }, "geometry": { "type": "Point", "coordinates": [ 128.6212483, 35.8114729 ] } },
{ "type": "Feature", "properties": { "shelter_id": "27260044", "name": "수성1가제1경로당", "address": "대구광역시 수성구 수성로53길 50-4", "latitude": 35.850481, "longitude": 128.6103998, "capacity": 32.0, "shelter_type": "003", "weekday_open": true, "weekend_open": false, "night_open": false }, "geometry": { "type": "Point", "coordinates": [ 128.61039980000001, 35.850481 ] } },
{ "type": "Feature", "properties": { "shelter_id": "27260077", "name": "덕화경로당", "address": "대구광역시 수성구 수성로14길 72-1", "latitude": 35.831879, "longitude": 128.615135, "capacity": 46.0, "shelter_type": "003", "weekday_open": true, "weekend_open": false, "night_open": false }, "geometry": { "type": "Point", "coordinates": [ 128.615135, 35.831879 ] } },
{ "type": "Feature", "properties": { "shelter_id": "27260075", "name": "iM뱅크파동지점", "address": "대구광역시 수성구  수성로  5   (상동)", "latitude": 35.8259891, "longitude": 128.6098758, "capacity": 5.0, "shelter_type": "004", "weekday_open": true, "weekend_open": false, "night_open": false }, "geometry": { "type": "Point", "coordinates": [ 128.6098758, 35.8259891 ] } },
{ "type": "Feature", "properties": { "shelter_id": "27260076", "name": "한들경로당", "address": "대구광역시 수성구 수성로32길 99", "latitude": 35.836543, "longitude": 128.613588, "capacity": 30.0, "shelter_type": "003", "weekday_open": true, "weekend_open": false, "night_open": false }, "geometry": { "type": "Point", "coordinates": [ 128.613588, 35.836543 ] } },
{ "type": "Feature", "properties": { "shelter_id": "27260051", "name": "열린경로당", "address": "대구광역시 수성구 명덕로 405-4 (수성동2가)", "latitude": 35.854845, "longitude": 128.614559, "capacity": 18.0, "shelter_type": "003", "weekday_open": true, "weekend_open": false, "night_open": false }, "geometry": { "type": "Point", "coordinates": [ 128.614559, 35.854845 ] } },
{ "type": "Feature", "properties": { "shelter_id": "27260049", "name": "동대구농협수성지점", "address": "대구광역시 수성구 명덕로 455 (수성동3가, 수성3가롯데캐슬아파트)", "latitude": 35.8543853, "longitude": 128.6197624, "capacity": 6.0, "shelter_type": "004", "weekday_open": true, "weekend_open": false, "night_open": false }, "geometry": { "type": "Point", "coordinates": [ 128.619762400000013, 35.8543853 ] } },
{ "type": "Feature", "properties": { "shelter_id": "2726000235", "name": "범어4동주민자치센터", "address": "대구광역시 수성구 범어로20길 97  (범어동)", "latitude": 35.8580949, "longitude": 128.6412684, "capacity": 125.0, "shelter_type": "001", "weekday_open": true, "weekend_open": false, "night_open": false }, "geometry": { "type": "Point", "coordinates": [ 128.6412684, 35.8580949 ] } },
{ "type": "Feature", "properties": { "shelter_id": "27260121", "name": "욱수동경로당", "address": "대구광역시 수성구 욱수천로 15", "latitude": 35.830014, "longitude": 128.709789, "capacity": 40.0, "shelter_type": "003", "weekday_open": true, "weekend_open": false, "night_open": false }, "geometry": { "type": "Point", "coordinates": [ 128.709789, 35.830014 ] } },
{ "type": "Feature", "properties": { "shelter_id": "27260062", "name": "황금2동제2경로당", "address": "대구광역시 수성구  들안로40안길  7-20  (황금동)", "latitude": 35.8475555, "longitude": 128.61888, "capacity": 24.0, "shelter_type": "003", "weekday_open": true, "weekend_open": false, "night_open": false }, "geometry": { "type": "Point", "coordinates": [ 128.61888, 35.8475555 ] } },
{ "type": "Feature", "properties": { "shelter_id": "27260063", "name": "iM뱅크황금네거리지점", "address": "대구광역시 수성구  동대구로  111 ,  황금빌딩 (황금동)", "latitude": 35.8403266, "longitude": 128.6235382, "capacity": 25.0, "shelter_type": "004", "weekday_open": true, "weekend_open": false, "night_open": false }, "geometry": { "type": "Point", "coordinates": [ 128.623538200000013, 35.8403266 ] } },
{ "type": "Feature", "properties": { "shelter_id": "27260089", "name": "두산제1경로당", "address": "대구광역시 수성구 지범로 21-11", "latitude": 35.8291873, "longitude": 128.625019, "capacity": 30.0, "shelter_type": "003", "weekday_open": true, "weekend_open": false, "night_open": false }, "geometry": { "type": "Point", "coordinates": [ 128.625019, 35.8291873 ] } },
{ "type": "Feature", "properties": { "shelter_id": "27260096", "name": "새마을경로당", "address": "대구광역시 수성구 무학로31길 23 (지산동)", "latitude": 35.8314842, "longitude": 128.6264664, "capacity": 32.0, "shelter_type": "003", "weekday_open": true, "weekend_open": false, "night_open": false }, "geometry": { "type": "Point", "coordinates": [ 128.6264664, 35.8314842 ] } },
{ "type": "Feature", "properties": { "shelter_id": "27260086", "name": "파동제1경로당", "address": "대구광역시 수성구 파동로38길 45-13", "latitude": 35.818703, "longitude": 128.614758, "capacity": 30.0, "shelter_type": "003", "weekday_open": true, "weekend_open": false, "night_open": false }, "geometry": { "type": "Point", "coordinates": [ 128.614758, 35.818703 ] } },
{ "type": "Feature", "properties": { "shelter_id": "27260087", "name": "두산동행정복지센터", "address": "대구광역시 수성구 상화로 95", "latitude": 35.835259, "longitude": 128.617553, "capacity": 6.0, "shelter_type": "001", "weekday_open": true, "weekend_open": true, "night_open": false }, "geometry": { "type": "Point", "coordinates": [ 128.617553, 35.835259 ] } },
{ "type": "Feature", "properties": { "shelter_id": "27260035", "name": "만촌3동행정복지센터", "address": "대구광역시 수성구 교학로2길 45 (만촌동)", "latitude": 35.8555868, "longitude": 128.6506179, "capacity": 6.0, "shelter_type": "001", "weekday_open": true, "weekend_open": true, "night_open": false }, "geometry": { "type": "Point", "coordinates": [ 128.650617899999986, 35.8555868 ] } },
{ "type": "Feature", "properties": { "shelter_id": "27260036", "name": "만촌3동제1경로당", "address": "대구광역시 수성구 달구벌대로526안길 6 (만촌동)", "latitude": 35.8564288, "longitude": 128.6489877, "capacity": 7.0, "shelter_type": "003", "weekday_open": true, "weekend_open": false, "night_open": false }, "geometry": { "type": "Point", "coordinates": [ 128.6489877, 35.8564288 ] } },
{ "type": "Feature", "properties": { "shelter_id": "27260037", "name": "동대구농협만촌지점", "address": "대구광역시 수성구 달구벌대로 2668 (만촌동)", "latitude": 35.8549657, "longitude": 128.6529735, "capacity": 5.0, "shelter_type": "004", "weekday_open": true, "weekend_open": false, "night_open": false }, "geometry": { "type": "Point", "coordinates": [ 128.6529735, 35.8549657 ] } },
{ "type": "Feature", "properties": { "shelter_id": "27260003", "name": "홀트대구종합복지관", "address": "대구광역시 수성구  달구벌대로488길  13 ,  홀트종합사회복지관 (범어동)", "latitude": 35.8575746, "longitude": 128.6296678, "capacity": 6.0, "shelter_type": "001", "weekday_open": true, "weekend_open": false, "night_open": false }, "geometry": { "type": "Point", "coordinates": [ 128.6296678, 35.8575746 ] } },
{ "type": "Feature", "properties": { "shelter_id": "27260022", "name": "범어4동제2경로당", "address": "대구광역시 수성구 범어로20길 24-1", "latitude": 35.857694, "longitude": 128.637151, "capacity": 30.0, "shelter_type": "003", "weekday_open": true, "weekend_open": false, "night_open": false }, "geometry": { "type": "Point", "coordinates": [ 128.637151, 35.857694 ] } },
{ "type": "Feature", "properties": { "shelter_id": "27260004", "name": "범어1동행정복지센터", "address": "대구광역시 수성구 범어천로 97", "latitude": 35.8557077, "longitude": 128.6220441, "capacity": 7.0, "shelter_type": "001", "weekday_open": true, "weekend_open": true, "night_open": false }, "geometry": { "type": "Point", "coordinates": [ 128.622044100000011, 35.8557077 ] } },
{ "type": "Feature", "properties": { "shelter_id": "27260095", "name": "수동경로당", "address": "대구광역시 수성구 지범로31안길 3-14", "latitude": 35.8243617, "longitude": 128.6405658, "capacity": 48.0, "shelter_type": "003", "weekday_open": true, "weekend_open": false, "night_open": false }, "geometry": { "type": "Point", "coordinates": [ 128.6405658, 35.8243617 ] } },
{ "type": "Feature", "properties": { "shelter_id": "27260024", "name": "무열로119안전센터", "address": "대구광역시 수성구 무열로 139 (만촌동)", "latitude": 35.8707208, "longitude": 128.6481684, "capacity": 5.0, "shelter_type": "001", "weekday_open": true, "weekend_open": false, "night_open": false }, "geometry": { "type": "Point", "coordinates": [ 128.6481684, 35.8707208 ] } },
{ "type": "Feature", "properties": { "shelter_id": "27260025", "name": "만촌1동행정복지센터", "address": "대구광역시 수성구 국채보상로 1001 (만촌1동행정복지센터)", "latitude": 35.866159, "longitude": 128.639802, "capacity": 50.0, "shelter_type": "001", "weekday_open": true, "weekend_open": true, "night_open": false }, "geometry": { "type": "Point", "coordinates": [ 128.639802, 35.866159 ] } },
{ "type": "Feature", "properties": { "shelter_id": "27260066", "name": "수성구보건소", "address": "대구광역시 수성구 수성로 213 (수성구보건소)", "latitude": 35.844721, "longitude": 128.612208, "capacity": 40.0, "shelter_type": "001", "weekday_open": true, "weekend_open": false, "night_open": false }, "geometry": { "type": "Point", "coordinates": [ 128.612208, 35.844721 ] } },
{ "type": "Feature", "properties": { "shelter_id": "27260067", "name": "NH농협은행대구중동금융센터", "address": "대구광역시 수성구  희망로  124   (중동)", "latitude": 35.8469078, "longitude": 128.6119334, "capacity": 30.0, "shelter_type": "004", "weekday_open": true, "weekend_open": false, "night_open": false }, "geometry": { "type": "Point", "coordinates": [ 128.6119334, 35.8469078 ] } },
{ "type": "Feature", "properties": { "shelter_id": "27260068", "name": "중동새마을금고본점", "address": "대구광역시 수성구 수성로 207 (중동)", "latitude": 35.8441151, "longitude": 128.6123073, "capacity": 30.0, "shelter_type": "004", "weekday_open": true, "weekend_open": false, "night_open": false }, "geometry": { "type": "Point", "coordinates": [ 128.6123073, 35.8441151 ] } },
{ "type": "Feature", "properties": { "shelter_id": "27260069", "name": "iM뱅크중동지점", "address": "대구광역시 수성구  수성로  248   (중동)", "latitude": 35.8475013, "longitude": 128.6131971, "capacity": 20.0, "shelter_type": "004", "weekday_open": true, "weekend_open": false, "night_open": false }, "geometry": { "type": "Point", "coordinates": [ 128.6131971, 35.8475013 ] } },
{ "type": "Feature", "properties": { "shelter_id": "27260070", "name": "중동중부리경로당", "address": "대구광역시 수성구 수성로52안길 7-10 (중동)", "latitude": 35.8498621, "longitude": 128.61521, "capacity": 25.0, "shelter_type": "003", "weekday_open": true, "weekend_open": false, "night_open": false }, "geometry": { "type": "Point", "coordinates": [ 128.61521, 35.8498621 ] } },
{ "type": "Feature", "properties": { "shelter_id": "2726000242", "name": "국민건강보험공단대구수성지사", "address": "대구광역시 수성구 상록로 13 (건강보험대구수성지사)", "latitude": 35.860406, "longitude": 128.623712, "capacity": 20.0, "shelter_type": "001", "weekday_open": true, "weekend_open": false, "night_open": false }, "geometry": { "type": "Point", "coordinates": [ 128.623712, 35.860406 ] } },
{ "type": "Feature", "properties": { "shelter_id": "2726000241", "name": "수성구청", "address": "대구광역시 수성구 달구벌대로 2450 (수성구청)", "latitude": 35.85826, "longitude": 128.630562, "capacity": 50.0, "shelter_type": "001", "weekday_open": true, "weekend_open": true, "night_open": true }, "geometry": { "type": "Point", "coordinates": [ 128.630562, 35.85826 ] } },
{ "type": "Feature", "properties": { "shelter_id": "27260045", "name": "수성1가동행정복지센터", "address": "대구광역시 수성구 명덕로73길 7 (수성1가동행정복지센터)", "latitude": 35.855218, "longitude": 128.610335, "capacity": 7.0, "shelter_type": "001", "weekday_open": true, "weekend_open": true, "night_open": false }, "geometry": { "type": "Point", "coordinates": [ 128.610335, 35.855218 ] } },
{ "type": "Feature", "properties": { "shelter_id": "27260047", "name": "수성2.3가동행정복지센터", "address": "대구광역시 수성구 명덕로 443-2 (수성동3가)", "latitude": 35.8547536, "longitude": 128.6189949, "capacity": 5.0, "shelter_type": "001", "weekday_open": true, "weekend_open": true, "night_open": false }, "geometry": { "type": "Point", "coordinates": [ 128.6189949, 35.8547536 ] } },
{ "type": "Feature", "properties": { "shelter_id": "27260048", "name": "Sh수협은행경북지역금융본부", "address": "대구광역시 수성구 달구벌대로 2348 (수성동3가)", "latitude": 35.8592157, "longitude": 128.6193359, "capacity": 6.0, "shelter_type": "004", "weekday_open": true, "weekend_open": false, "night_open": false }, "geometry": { "type": "Point", "coordinates": [ 128.61933590000001, 35.8592157 ] } },
{ "type": "Feature", "properties": { "shelter_id": "27260135", "name": "매호공원경로당", "address": "대구광역시 수성구 천을로23길 5", "latitude": 35.844932, "longitude": 128.703529, "capacity": 6.0, "shelter_type": "003", "weekday_open": true, "weekend_open": false, "night_open": false }, "geometry": { "type": "Point", "coordinates": [ 128.703529, 35.844932 ] } },
{ "type": "Feature", "properties": { "shelter_id": "27260136", "name": "고산3동행정복지센터", "address": "대구광역시 수성구 고산로 152 (고산3동행정복지센터)", "latitude": 35.844069, "longitude": 128.706544, "capacity": 6.0, "shelter_type": "001", "weekday_open": true, "weekend_open": true, "night_open": false }, "geometry": { "type": "Point", "coordinates": [ 128.706544, 35.844069 ] } },
{ "type": "Feature", "properties": { "shelter_id": "27260026", "name": "iM뱅크메트로팔레스지점", "address": "대구광역시 수성구  동원로  135   (만촌동, 메트로팔레스)", "latitude": 35.8693059, "longitude": 128.6343632, "capacity": 20.0, "shelter_type": "004", "weekday_open": true, "weekend_open": false, "night_open": false }, "geometry": { "type": "Point", "coordinates": [ 128.6343632, 35.8693059 ] } },
{ "type": "Feature", "properties": { "shelter_id": "2726000234", "name": "두봉골경로당", "address": "대구광역시 수성구 달구벌대로522길 121-20", "latitude": 35.852463, "longitude": 128.645076, "capacity": 48.0, "shelter_type": "003", "weekday_open": true, "weekend_open": false, "night_open": false }, "geometry": { "type": "Point", "coordinates": [ 128.645076, 35.852463 ] } },
{ "type": "Feature", "properties": { "shelter_id": "27260050", "name": "iM뱅크본점영업부", "address": "대구광역시 수성구  달구벌대로  2310 ,  대구은행본점 (수성동2가)", "latitude": 35.8592, "longitude": 128.6149209, "capacity": 6.0, "shelter_type": "004", "weekday_open": true, "weekend_open": false, "night_open": false }, "geometry": { "type": "Point", "coordinates": [ 128.614920899999987, 35.8592 ] } },
{ "type": "Feature", "properties": { "shelter_id": "27260083", "name": "파동우체국", "address": "대구광역시 수성구 파동로 59 (파동)", "latitude": 35.8096871, "longitude": 128.6193681, "capacity": 9.0, "shelter_type": "001", "weekday_open": true, "weekend_open": false, "night_open": false }, "geometry": { "type": "Point", "coordinates": [ 128.6193681, 35.8096871 ] } },
{ "type": "Feature", "properties": { "shelter_id": "27260011", "name": "범어2동제1경로당", "address": "대구광역시 수성구 동원로11길 14 (범어동)", "latitude": 35.8637605, "longitude": 128.6388731, "capacity": 21.0, "shelter_type": "003", "weekday_open": true, "weekend_open": false, "night_open": false }, "geometry": { "type": "Point", "coordinates": [ 128.638873100000012, 35.8637605 ] } },
{ "type": "Feature", "properties": { "shelter_id": "27260039", "name": "iM뱅크만촌역지점", "address": "대구광역시 수성구 달구벌대로 2626 (만촌동)", "latitude": 35.8567418, "longitude": 128.649618, "capacity": 5.0, "shelter_type": "004", "weekday_open": true, "weekend_open": false, "night_open": false }, "geometry": { "type": "Point", "coordinates": [ 128.649618, 35.8567418 ] } },
{ "type": "Feature", "properties": { "shelter_id": "27260084", "name": "두레새마을금고", "address": "대구광역시 수성구 파동로 189 (파동)", "latitude": 35.8197281, "longitude": 128.6124166, "capacity": 6.0, "shelter_type": "004", "weekday_open": true, "weekend_open": false, "night_open": false }, "geometry": { "type": "Point", "coordinates": [ 128.612416599999989, 35.8197281 ] } },
{ "type": "Feature", "properties": { "shelter_id": "27260085", "name": "파동평생학습센터", "address": "대구광역시 수성구 파동로3길 62 (파동)", "latitude": 35.8104963, "longitude": 128.6182737, "capacity": 20.0, "shelter_type": "001", "weekday_open": true, "weekend_open": false, "night_open": false }, "geometry": { "type": "Point", "coordinates": [ 128.6182737, 35.8104963 ] } },
{ "type": "Feature", "properties": { "shelter_id": "27260101", "name": "동대구농협수동지점", "address": "대구광역시 수성구 용학로 220 (동대구농협수동지점)", "latitude": 35.820984, "longitude": 128.632329, "capacity": 20.0, "shelter_type": "004", "weekday_open": true, "weekend_open": false, "night_open": false }, "geometry": { "type": "Point", "coordinates": [ 128.632329, 35.820984 ] } },
{ "type": "Feature", "properties": { "shelter_id": "27260104", "name": "범물종합사회복지관", "address": "대구광역시 수성구  범안로  79   (범물동, 범물용지아파트)", "latitude": 35.8197909, "longitude": 128.6456619, "capacity": 5.0, "shelter_type": "001", "weekday_open": true, "weekend_open": false, "night_open": false }, "geometry": { "type": "Point", "coordinates": [ 128.6456619, 35.8197909 ] } },
{ "type": "Feature", "properties": { "shelter_id": "27260133", "name": "삼덕경로당", "address": "대구광역시 수성구 범안로64길 18-11", "latitude": 35.828223, "longitude": 128.6688517, "capacity": 20.0, "shelter_type": "003", "weekday_open": true, "weekend_open": false, "night_open": false }, "geometry": { "type": "Point", "coordinates": [ 128.6688517, 35.828223 ] } },
{ "type": "Feature", "properties": { "shelter_id": "27260134", "name": "팔현경로당", "address": "대구광역시 수성구 팔현길 88-5", "latitude": 35.867482, "longitude": 128.670647, "capacity": 23.0, "shelter_type": "003", "weekday_open": true, "weekend_open": false, "night_open": false }, "geometry": { "type": "Point", "coordinates": [ 128.670647, 35.867482 ] } },
{ "type": "Feature", "properties": { "shelter_id": "27260139", "name": "성동경로당", "address": "대구광역시 수성구 성동로 166", "latitude": 35.848623, "longitude": 128.721054, "capacity": 62.0, "shelter_type": "003", "weekday_open": true, "weekend_open": false, "night_open": false }, "geometry": { "type": "Point", "coordinates": [ 128.721054, 35.848623 ] } },
{ "type": "Feature", "properties": { "shelter_id": "27260120", "name": "신매경로당", "address": "대구광역시 수성구 욱수천로 78", "latitude": 35.835099, "longitude": 128.712131, "capacity": 28.0, "shelter_type": "003", "weekday_open": true, "weekend_open": false, "night_open": false }, "geometry": { "type": "Point", "coordinates": [ 128.712131, 35.835099 ] } },
{ "type": "Feature", "properties": { "shelter_id": "27260065", "name": "중동행정복지센터", "address": "대구광역시 수성구 수성로50길 38 (중동)", "latitude": 35.8473522, "longitude": 128.6150938, "capacity": 25.0, "shelter_type": "001", "weekday_open": true, "weekend_open": true, "night_open": false }, "geometry": { "type": "Point", "coordinates": [ 128.615093800000011, 35.8473522 ] } },
{ "type": "Feature", "properties": { "shelter_id": "27260064", "name": "황금2동제1경로당", "address": "대구광역시 수성구 희망로36길 32", "latitude": 35.845677, "longitude": 128.619143, "capacity": 30.0, "shelter_type": "003", "weekday_open": true, "weekend_open": false, "night_open": false }, "geometry": { "type": "Point", "coordinates": [ 128.619143, 35.845677 ] } },
{ "type": "Feature", "properties": { "shelter_id": "27260088", "name": "두산경로당", "address": "대구광역시 수성구 들안로8길 68-5 (두산동)", "latitude": 35.8341818, "longitude": 128.6197578, "capacity": 7.0, "shelter_type": "003", "weekday_open": true, "weekend_open": false, "night_open": false }, "geometry": { "type": "Point", "coordinates": [ 128.6197578, 35.8341818 ] } },
{ "type": "Feature", "properties": { "shelter_id": "27260054", "name": "수성4가동행정복지센터", "address": "대구광역시 수성구  들안로67길  64 ,  수성4가동주민센터 (수성동4가)", "latitude": 35.8626471, "longitude": 128.6166444, "capacity": 15.0, "shelter_type": "001", "weekday_open": true, "weekend_open": true, "night_open": false }, "geometry": { "type": "Point", "coordinates": [ 128.616644400000013, 35.8626471 ] } },
{ "type": "Feature", "properties": { "shelter_id": "27260055", "name": "수성4가경로당", "address": "대구광역시 수성구 범어천로 151 (수성동4가)", "latitude": 35.8602535, "longitude": 128.622157, "capacity": 20.0, "shelter_type": "003", "weekday_open": true, "weekend_open": false, "night_open": false }, "geometry": { "type": "Point", "coordinates": [ 128.622157, 35.8602535 ] } },
{ "type": "Feature", "properties": { "shelter_id": "27260056", "name": "미수경로당", "address": "대구광역시 수성구 들안로81길 29 (수성동4가)", "latitude": 35.8660476, "longitude": 128.616578, "capacity": 20.0, "shelter_type": "003", "weekday_open": true, "weekend_open": false, "night_open": false }, "geometry": { "type": "Point", "coordinates": [ 128.616578, 35.8660476 ] } },
{ "type": "Feature", "properties": { "shelter_id": "27260005", "name": "iM뱅크수성구청지점", "address": "대구광역시 수성구 달구벌대로 2450 (범어동)", "latitude": 35.8584831, "longitude": 128.6299548, "capacity": 6.0, "shelter_type": "004", "weekday_open": true, "weekend_open": false, "night_open": false }, "geometry": { "type": "Point", "coordinates": [ 128.6299548, 35.8584831 ] } },
{ "type": "Feature", "properties": { "shelter_id": "27260007", "name": "범어1동제2경로당", "address": "대구광역시 수성구 청솔로16길 35", "latitude": 35.8519206, "longitude": 128.6229346, "capacity": 6.0, "shelter_type": "003", "weekday_open": true, "weekend_open": false, "night_open": false }, "geometry": { "type": "Point", "coordinates": [ 128.6229346, 35.8519206 ] } },
{ "type": "Feature", "properties": { "shelter_id": "27260002", "name": "범어1동제1경로당", "address": "대구광역시 수성구 동대구로54길 7 (범어동)", "latitude": 35.8538526, "longitude": 128.6275303, "capacity": 6.0, "shelter_type": "003", "weekday_open": true, "weekend_open": false, "night_open": false }, "geometry": { "type": "Point", "coordinates": [ 128.627530299999989, 35.8538526 ] } },
{ "type": "Feature", "properties": { "shelter_id": "27260008", "name": "범어2동행정복지센터", "address": "대구광역시 수성구 달구벌대로489안길 47 (범어동)", "latitude": 35.8622916, "longitude": 128.6310625, "capacity": 21.0, "shelter_type": "001", "weekday_open": true, "weekend_open": true, "night_open": false }, "geometry": { "type": "Point", "coordinates": [ 128.631062500000013, 35.8622916 ] } },
{ "type": "Feature", "properties": { "shelter_id": "27260009", "name": "동대구농협본점", "address": "대구광역시 수성구  달구벌대로  2487   (범어동)", "latitude": 35.8592464, "longitude": 128.634642, "capacity": 21.0, "shelter_type": "004", "weekday_open": true, "weekend_open": false, "night_open": false }, "geometry": { "type": "Point", "coordinates": [ 128.634642, 35.8592464 ] } },
{ "type": "Feature", "properties": { "shelter_id": "27260010", "name": "iM뱅크동대구로지점", "address": "대구광역시 수성구  동대구로  382   (범어동)", "latitude": 35.8645367, "longitude": 128.6274144, "capacity": 18.0, "shelter_type": "004", "weekday_open": true, "weekend_open": false, "night_open": false }, "geometry": { "type": "Point", "coordinates": [ 128.6274144, 35.8645367 ] } },
{ "type": "Feature", "properties": { "shelter_id": "27260041", "name": "각계경로당", "address": "대구광역시 수성구 달구벌대로530길 146", "latitude": 35.8498115, "longitude": 128.6510247, "capacity": 50.0, "shelter_type": "003", "weekday_open": true, "weekend_open": false, "night_open": false }, "geometry": { "type": "Point", "coordinates": [ 128.6510247, 35.8498115 ] } },
{ "type": "Feature", "properties": { "shelter_id": "27260113", "name": "고산119안전센터", "address": "대구광역시 수성구 고산로 105 (신매동)", "latitude": 35.8402134, "longitude": 128.7045097, "capacity": 5.0, "shelter_type": "001", "weekday_open": true, "weekend_open": false, "night_open": true }, "geometry": { "type": "Point", "coordinates": [ 128.704509699999988, 35.8402134 ] } },
{ "type": "Feature", "properties": { "shelter_id": "27260114", "name": "고산1동행정복지센터", "address": "대구광역시 수성구 달구벌대로 3260-2 (신매동)", "latitude": 35.8370509, "longitude": 128.7123775, "capacity": 5.0, "shelter_type": "001", "weekday_open": true, "weekend_open": true, "night_open": false }, "geometry": { "type": "Point", "coordinates": [ 128.7123775, 35.8370509 ] } },
{ "type": "Feature", "properties": { "shelter_id": "2726000239", "name": "두리공원경로당", "address": "대구광역시 수성구 고산로4안길 31", "latitude": 35.83142, "longitude": 128.703932, "capacity": 36.0, "shelter_type": "003", "weekday_open": true, "weekend_open": false, "night_open": false }, "geometry": { "type": "Point", "coordinates": [ 128.703932, 35.83142 ] } },
{ "type": "Feature", "properties": { "shelter_id": "27260057", "name": "신천경로당", "address": "대구광역시 수성구 신천동로88길 1-15", "latitude": 35.8629988, "longitude": 128.613033, "capacity": 40.0, "shelter_type": "003", "weekday_open": true, "weekend_open": false, "night_open": false }, "geometry": { "type": "Point", "coordinates": [ 128.613033, 35.8629988 ] } },
{ "type": "Feature", "properties": { "shelter_id": "27260058", "name": "황금1동행정복지센터", "address": "대구광역시 수성구 청호로57길 10 (황금동)", "latitude": 35.843946, "longitude": 128.6381429, "capacity": 7.0, "shelter_type": "001", "weekday_open": true, "weekend_open": true, "night_open": false }, "geometry": { "type": "Point", "coordinates": [ 128.6381429, 35.843946 ] } },
{ "type": "Feature", "properties": { "shelter_id": "27260094", "name": "지산무학경로당", "address": "대구광역시 수성구 청수로38길 53-11", "latitude": 35.8366323, "longitude": 128.6286042, "capacity": 20.0, "shelter_type": "003", "weekday_open": true, "weekend_open": false, "night_open": false }, "geometry": { "type": "Point", "coordinates": [ 128.628604200000012, 35.8366323 ] } },
{ "type": "Feature", "properties": { "shelter_id": "27260108", "name": "iM뱅크지산지점", "address": "대구광역시 수성구 지범로 188 (범물동)", "latitude": 35.8209657, "longitude": 128.6396196, "capacity": 25.0, "shelter_type": "004", "weekday_open": true, "weekend_open": false, "night_open": false }, "geometry": { "type": "Point", "coordinates": [ 128.6396196, 35.8209657 ] } },
{ "type": "Feature", "properties": { "shelter_id": "27260102", "name": "범물119안전센터", "address": "대구광역시 수성구 청호로 87", "latitude": 35.8255167, "longitude": 128.64424, "capacity": 8.0, "shelter_type": "001", "weekday_open": true, "weekend_open": false, "night_open": true }, "geometry": { "type": "Point", "coordinates": [ 128.64424, 35.8255167 ] } },
{ "type": "Feature", "properties": { "shelter_id": "27260103", "name": "범물1동행정복지센터", "address": "대구광역시 수성구 범안로 76 (범물동)", "latitude": 35.8177469, "longitude": 128.6459958, "capacity": 5.0, "shelter_type": "001", "weekday_open": true, "weekend_open": true, "night_open": false }, "geometry": { "type": "Point", "coordinates": [ 128.6459958, 35.8177469 ] } },
{ "type": "Feature", "properties": { "shelter_id": "27260109", "name": "범물2동경로당", "address": "대구광역시 수성구 지범로48길 14-1 (범물동)", "latitude": 35.8160045, "longitude": 128.6436176, "capacity": 20.0, "shelter_type": "003", "weekday_open": true, "weekend_open": false, "night_open": false }, "geometry": { "type": "Point", "coordinates": [ 128.6436176, 35.8160045 ] } },
{ "type": "Feature", "properties": { "shelter_id": "27260110", "name": "범물2동행정복지센터", "address": "대구광역시 수성구 범안로 52 (범물동)", "latitude": 35.8175861, "longitude": 128.6435516, "capacity": 25.0, "shelter_type": "001", "weekday_open": true, "weekend_open": true, "night_open": false }, "geometry": { "type": "Point", "coordinates": [ 128.6435516, 35.8175861 ] } },
{ "type": "Feature", "properties": { "shelter_id": "27260111", "name": "범물공원경로당", "address": "대구광역시 수성구  지범로  232   (범물동)", "latitude": 35.8184053, "longitude": 128.6433575, "capacity": 15.0, "shelter_type": "003", "weekday_open": true, "weekend_open": false, "night_open": false }, "geometry": { "type": "Point", "coordinates": [ 128.6433575, 35.8184053 ] } },
{ "type": "Feature", "properties": { "shelter_id": "27260059", "name": "iM뱅크황금동지점", "address": "대구광역시 수성구 청수로 235 (황금동, 캐슬골드파크 2단지)", "latitude": 35.8408769, "longitude": 128.6337293, "capacity": 6.0, "shelter_type": "004", "weekday_open": true, "weekend_open": false, "night_open": false }, "geometry": { "type": "Point", "coordinates": [ 128.6337293, 35.8408769 ] } },
{ "type": "Feature", "properties": { "shelter_id": "27260060", "name": "황금복지관", "address": "대구광역시 수성구 청수로45길 41", "latitude": 35.8435523, "longitude": 128.6320211, "capacity": 7.0, "shelter_type": "001", "weekday_open": true, "weekend_open": false, "night_open": false }, "geometry": { "type": "Point", "coordinates": [ 128.6320211, 35.8435523 ] } },
{ "type": "Feature", "properties": { "shelter_id": "27260061", "name": "황금2동행정복지센터", "address": "대구광역시 수성구 청솔로2길 64 (황금동)", "latitude": 35.8472024, "longitude": 128.6236471, "capacity": 33.0, "shelter_type": "001", "weekday_open": true, "weekend_open": true, "night_open": false }, "geometry": { "type": "Point", "coordinates": [ 128.6236471, 35.8472024 ] } },
{ "type": "Feature", "properties": { "shelter_id": "27260072", "name": "상록수경로당", "address": "대구광역시 수성구 들안로29길 26-18", "latitude": 35.8444736, "longitude": 128.6154304, "capacity": 20.0, "shelter_type": "003", "weekday_open": true, "weekend_open": false, "night_open": false }, "geometry": { "type": "Point", "coordinates": [ 128.6154304, 35.8444736 ] } },
{ "type": "Feature", "properties": { "shelter_id": "27260073", "name": "상동행정복지센터", "address": "대구광역시 수성구  들안로9길  56 ,  상동주민센터 (상동)", "latitude": 35.8321267, "longitude": 128.6154609, "capacity": 5.0, "shelter_type": "001", "weekday_open": true, "weekend_open": true, "night_open": false }, "geometry": { "type": "Point", "coordinates": [ 128.615460899999988, 35.8321267 ] } },
{ "type": "Feature", "properties": { "shelter_id": "27260074", "name": "동대구농협상동지점", "address": "대구광역시 수성구 수성로 114 (상동)", "latitude": 35.8356284, "longitude": 128.6120698, "capacity": 5.0, "shelter_type": "004", "weekday_open": true, "weekend_open": false, "night_open": false }, "geometry": { "type": "Point", "coordinates": [ 128.6120698, 35.8356284 ] } },
{ "type": "Feature", "properties": { "shelter_id": "27260071", "name": "중동경로당", "address": "대구광역시 수성구 수성로39안길 5", "latitude": 35.8436893, "longitude": 128.6114586, "capacity": 30.0, "shelter_type": "003", "weekday_open": true, "weekend_open": false, "night_open": false }, "geometry": { "type": "Point", "coordinates": [ 128.6114586, 35.8436893 ] } },
{ "type": "Feature", "properties": { "shelter_id": "27260105", "name": "범물노인복지관", "address": "대구광역시 수성구 범안로 99", "latitude": 35.819232, "longitude": 128.648679, "capacity": 50.0, "shelter_type": "003", "weekday_open": true, "weekend_open": false, "night_open": false }, "geometry": { "type": "Point", "coordinates": [ 128.648679, 35.819232 ] } },
{ "type": "Feature", "properties": { "shelter_id": "27260106", "name": "용학도서관", "address": "대구광역시 수성구 지범로41길 36", "latitude": 35.8212086, "longitude": 128.6461306, "capacity": 50.0, "shelter_type": "001", "weekday_open": true, "weekend_open": false, "night_open": false }, "geometry": { "type": "Point", "coordinates": [ 128.6461306, 35.8212086 ] } },
{ "type": "Feature", "properties": { "shelter_id": "27260107", "name": "범물경로당", "address": "대구광역시 수성구 범안로16길 46", "latitude": 35.8163867, "longitude": 128.6473521, "capacity": 34.0, "shelter_type": "003", "weekday_open": true, "weekend_open": false, "night_open": false }, "geometry": { "type": "Point", "coordinates": [ 128.6473521, 35.8163867 ] } },
{ "type": "Feature", "properties": { "shelter_id": "27260020", "name": "KB국민은행범어동", "address": "대구광역시 수성구  달구벌대로  2470 ,  동신건물사옥 (범어동)", "latitude": 35.8583536, "longitude": 128.6327521, "capacity": 136.0, "shelter_type": "004", "weekday_open": true, "weekend_open": false, "night_open": false }, "geometry": { "type": "Point", "coordinates": [ 128.6327521, 35.8583536 ] } }
]
}
