{
"type": "FeatureCollection",
"name": "areas",
"crs": { "type": "name", "properties": { "name": "urn:ogc:def:crs:OGC:1.3:CRS84" } },
"features": [
{ "type": "Feature", "properties": { "adm_cd": "22060510", "adm_name": "대구광역시 수성구 범어1동", "population": 19916, "elderly_population": 2701, "temperature": 27.1, "humidity": 50.0, "weather_base_date": "20260811", "weather_base_time": "0900", "weather_source": "KMA observation T1H/REH" }, "geometry": { "type": "Polygon", "coordinates": [ [ [ 128.622603819824775, 35.85940816338487 ], [ 128.626519794870632, 35.859039104073823 ], [ 128.632331022716642, 35.858810260086941 ], [ 128.632054654359195, 35.857115701233703 ], [ 128.631908163816348, 35.855461246036 ], [ 128.631929365723067, 35.853733693158091 ], [ 128.632095289496391, 35.853209720419045 ], [ 128.633068219284354, 35.850401450994873 ], [ 128.632529522824399, 35.850322668636899 ], [ 128.631765606627738, 35.848982193318854 ], [ 128.631689992598098, 35.84852498265635 ], [ 128.63180538341021, 35.847739838323726 ], [ 128.63202469358319, 35.847247658120182 ], [ 128.630990968101827, 35.846269993544134 ], [ 128.630673446210949, 35.846002673831649 ], [ 128.630266258931613, 35.846080154376359 ], [ 128.629860571966702, 35.847112891030868 ], [ 128.629548780962836, 35.847523465589234 ], [ 128.629529947933065, 35.847524213326693 ], [ 128.62950710523873, 35.847525118662674 ], [ 128.628856230831758, 35.847550904953927 ], [ 128.627843326199496, 35.84761089296758 ], [ 128.62660478245644, 35.847904824172886 ], [ 128.626429481036297, 35.847948080273341 ], [ 128.626080254518058, 35.848219848019262 ], [ 128.625806217755155, 35.849340181667351 ], [ 128.625273290843495, 35.850366239820552 ], [ 128.624663417887206, 35.850383481174681 ], [ 128.624381194393777, 35.850375601421199 ], [ 128.620624508699933, 35.850612557906395 ], [ 128.621452515572798, 35.859447797738547 ], [ 128.622056905858699, 35.859456177159103 ], [ 128.622603819824775, 35.85940816338487 ] ] ] } },
{ "type": "Feature", "properties": { "adm_cd": "22060520", "adm_name": "대구광역시 수성구 범어2동", "population": 13808, "elderly_population": 2433, "temperature": 27.1, "humidity": 50.0, "weather_base_date": "20260811", "weather_base_time": "0900", "weather_source": "KMA observation T1H/REH" }, "geometry": { "type": "Polygon", "coordinates": [ [ [ 128.637464900560502, 35.866698286848795 ], [ 128.63890125271837, 35.866173896003289 ], [ 128.640466341848622, 35.858876770822057 ], [ 128.632331022716642, 35.858810260086941 ], [ 128.626519794870632, 35.859039104073823 ], [ 128.626863723608125, 35.860848706261756 ], [ 128.627002849840181, 35.861715544037438 ], [ 128.627045444226752, 35.861980927935591 ], [ 128.627054680813671, 35.862038478010234 ], [ 128.627097000173393, 35.862302167717822 ], [ 128.627108420674034, 35.862373388383936 ], [ 128.627114420296948, 35.862461934698551 ], [ 128.627153991507754, 35.863046801096658 ], [ 128.627155020431871, 35.863141363265321 ], [ 128.627156899973699, 35.86331414038591 ], [ 128.627164276295701, 35.863992325390605 ], [ 128.627166410168343, 35.864188843576251 ], [ 128.627106461941423, 35.866924938555243 ], [ 128.629809376541488, 35.866706119551395 ], [ 128.630434337294474, 35.866803464890062 ], [ 128.63059355962028, 35.866828264898061 ], [ 128.631426139544999, 35.86695794068892 ], [ 128.632065400626686, 35.867057502187123 ], [ 128.63458275785743, 35.867435074421898 ], [ 128.634750840627476, 35.86745026474722 ], [ 128.634907897861211, 35.867457041080357 ], [ 128.6350391975771, 35.867457224975141 ], [ 128.635202197246542, 35.867446842210313 ], [ 128.635245194664179, 35.867444101730825 ], [ 128.635408430807701, 35.867421572460167 ], [ 128.635525744243608, 35.867394951259335 ], [ 128.635616229352678, 35.867374416657292 ], [ 128.635755476034745, 35.867335557485738 ], [ 128.637464900560502, 35.866698286848795 ] ] ] } },
{ "type": "Feature", "properties": { "adm_cd": "22060530", "adm_name": "대구광역시 수성구 범어3동", "population": 16967, "elderly_population": 1818, "temperature": 27.1, "humidity": 50.0, "weather_base_date": "20260811", "weather_base_time": "0900", "weather_source": "KMA observation T1H/REH" }, "geometry": { "type": "Polygon", "coordinates": [ [ [ 128.618404256144345, 35.867775959612821 ], [ 128.618446918095032, 35.867771987718861 ], [ 128.627077812264559, 35.866927897618872 ], [ 128.627106461941423, 35.866924938555243 ], [ 128.627166410168343, 35.864188843576251 ], [ 128.627164276295701, 35.863992325390605 ], [ 128.627156899973699, 35.86331414038591 ], [ 128.627155020431871, 35.863141363265321 ], [ 128.627153991507754, 35.863046801096658 ], [ 128.627114420296948, 35.862461934698551 ], [ 128.627108420674034, 35.862373388383936 ], [ 128.627097000173393, 35.862302167717822 ], [ 128.627054680813671, 35.862038478010234 ], [ 128.627045444226752, 35.861980927935591 ], [ 128.627002849840181, 35.861715544037438 ], [ 128.626863723608125, 35.860848706261756 ], [ 128.626519794870632, 35.859039104073823 ], [ 128.622603819824775, 35.85940816338487 ], [ 128.622056905858699, 35.859456177159103 ], [ 128.622248015780457, 35.859623078586409 ], [ 128.622446661489136, 35.861018831156301 ], [ 128.622462344449701, 35.861328010954757 ], [ 128.622462568500794, 35.861333061206608 ], [ 128.622419470747502, 35.861491318118027 ], [ 128.622264074744862, 35.862048161831417 ], [ 128.621976406008713, 35.862689704519724 ], [ 128.617350791306706, 35.865754249536771 ], [ 128.617658091295851, 35.866106621814538 ], [ 128.617746888622548, 35.866280667652653 ], [ 128.617748224651592, 35.866283288678751 ], [ 128.617863581427372, 35.866612904845475 ], [ 128.617902643455352, 35.866813276420324 ], [ 128.61790367419286, 35.866830829220632 ], [ 128.617906958719601, 35.866919179500535 ], [ 128.617890708399329, 35.867246866630552 ], [ 128.617850778246776, 35.867350763465502 ], [ 128.617447864779791, 35.867594098212258 ], [ 128.617131716596418, 35.86771328591216 ], [ 128.616799475209262, 35.867766597549739 ], [ 128.616698580724602, 35.86777284662076 ], [ 128.616577192224497, 35.867777228744828 ], [ 128.615134581223259, 35.867749005320363 ], [ 128.614844032759834, 35.868118130563836 ], [ 128.618404256144345, 35.867775959612821 ] ] ] } },
{ "type": "Feature", "properties": { "adm_cd": "22060540", "adm_name": "대구광역시 수성구 범어4동", "population": 18393, "elderly_population": 2001, "temperature": 26.1, "humidity": 52.0, "weather_base_date": "20260811", "weather_base_time": "0900", "weather_source": "KMA observation T1H/REH" }, "geometry": { "type": "Polygon", "coordinates": [ [ [ 128.642801848513415, 35.858861572846095 ], [ 128.643688043050986, 35.857940949490477 ], [ 128.644591581997645, 35.855620092638311 ], [ 128.644186702065355, 35.854452726401163 ], [ 128.643392134511771, 35.853146083982018 ], [ 128.642971009724761, 35.852709008359078 ], [ 128.642890885165656, 35.852631776649176 ], [ 128.642862988651643, 35.849165426459855 ], [ 128.643135883083005, 35.847944344496597 ], [ 128.642574851213737, 35.847474616263284 ], [ 128.642111298086888, 35.847125211460892 ], [ 128.641591457278736, 35.846951054889971 ], [ 128.641152592166009, 35.846805721633892 ], [ 128.639497145922803, 35.847048869734529 ], [ 128.639489075122526, 35.847050069621197 ], [ 128.63932952350595, 35.847073890887508 ], [ 128.639304031896131, 35.8470777072963 ], [ 128.639206189230009, 35.847092359484186 ], [ 128.637666540493001, 35.8488502474261 ], [ 128.637057435528277, 35.850309923507886 ], [ 128.635670796295841, 35.850186571908317 ], [ 128.63478497501788, 35.850013062591806 ], [ 128.633068219284354, 35.850401450994873 ], [ 128.632095289496391, 35.853209720419045 ], [ 128.631929365723067, 35.853733693158091 ], [ 128.631908163816348, 35.855461246036 ], [ 128.632054654359195, 35.857115701233703 ], [ 128.632331022716642, 35.858810260086941 ], [ 128.640466341848622, 35.858876770822057 ], [ 128.642801848513415, 35.858861572846095 ] ] ] } },
{ "type": "Feature", "properties": { "adm_cd": "22060550", "adm_name": "대구광역시 수성구 만촌1동", "population": 20238, "elderly_population": 4659, "temperature": 26.1, "humidity": 52.0, "weather_base_date": "20260811", "weather_base_time": "0900", "weather_source": "KMA observation T1H/REH" }, "geometry": { "type": "Polygon", "coordinates": [ [ [ 128.651085963701291, 35.878327685863951 ], [ 128.651272710932062, 35.878330881586081 ], [ 128.6515075634357, 35.878278009707884 ], [ 128.651966331125067, 35.878112253780131 ], [ 128.652045428487042, 35.878082930254145 ], [ 128.652406692799332, 35.877865608476576 ], [ 128.6528906936108, 35.877555255331316 ], [ 128.653558455381273, 35.87709544455118 ], [ 128.654201214596839, 35.87661885440275 ], [ 128.654420829578385, 35.876480547678312 ], [ 128.654544908101315, 35.876418055617684 ], [ 128.654689391421073, 35.876345288784456 ], [ 128.654830004207042, 35.876283599437606 ], [ 128.655039229448107, 35.876214465938681 ], [ 128.655230406136837, 35.87615900014751 ], [ 128.655663740977332, 35.876074825747665 ], [ 128.655744736344275, 35.87605987487062 ], [ 128.655783790523117, 35.876056280522647 ], [ 128.65588304747186, 35.876049605906623 ], [ 128.656411953213336, 35.87601559387479 ], [ 128.659038230478075, 35.876585397928842 ], [ 128.659399281789177, 35.876812397581944 ], [ 128.660817327181149, 35.874674201990196 ], [ 128.661799573330683, 35.874069152543782 ], [ 128.662271948183729, 35.87377817215264 ], [ 128.663894226306468, 35.873110679958373 ], [ 128.663901932675827, 35.873107509345928 ], [ 128.664948397333802, 35.87283385197231 ], [ 128.666083752358134, 35.872662258512342 ], [ 128.66443607123793, 35.872276096275307 ], [ 128.662390928857377, 35.872526084555567 ], [ 128.662082326715506, 35.870474567045925 ], [ 128.661949849976907, 35.868323710413712 ], [ 128.662090850551266, 35.867996756818449 ], [ 128.662282357517512, 35.867787973522837 ], [ 128.662466836390621, 35.867638311636213 ], [ 128.662640426922422, 35.866950650514454 ], [ 128.66242819408356, 35.86641407355517 ], [ 128.661732809868596, 35.865271048125862 ], [ 128.660905291092575, 35.864154840892979 ], [ 128.659412448029769, 35.862223928185308 ], [ 128.65878802770186, 35.861924704813248 ], [ 128.657897182544758, 35.863536946075087 ], [ 128.65736245284802, 35.864825050255348 ], [ 128.656772146264785, 35.866262155461023 ], [ 128.656643595810124, 35.866520349504412 ], [ 128.656571230435105, 35.866588250085613 ], [ 128.654405725255657, 35.86735307542331 ], [ 128.653103510585822, 35.866488090507985 ], [ 128.653012398715617, 35.866413133332777 ], [ 128.652875107660492, 35.866109003585102 ], [ 128.652858638873056, 35.866032314736579 ], [ 128.652849909233112, 35.865935692117027 ], [ 128.652862365823921, 35.865872571775277 ], [ 128.653390879934562, 35.864950131786202 ], [ 128.653425398519715, 35.864913119606271 ], [ 128.65349644729028, 35.864855320154206 ], [ 128.653630244147593, 35.864727481965943 ], [ 128.653727399152416, 35.864501339973813 ], [ 128.65406020098456, 35.863373827659167 ], [ 128.65311056064138, 35.861872784346744 ], [ 128.652289239365103, 35.862057823072476 ], [ 128.649971690692382, 35.86479031260648 ], [ 128.649996191257458, 35.866021940623149 ], [ 128.649734052889642, 35.867611867356636 ], [ 128.649533867618004, 35.868405624257491 ], [ 128.649395178906786, 35.868869899016566 ], [ 128.649055724513772, 35.869624643799391 ], [ 128.648430885499067, 35.869939801877877 ], [ 128.647496135220933, 35.869260372984712 ], [ 128.645171100278986, 35.867589970310966 ], [ 128.644904714975496, 35.867398823452064 ], [ 128.644772609576819, 35.867305189051173 ], [ 128.64432751787129, 35.866991519096857 ], [ 128.644172040619196, 35.866891767808312 ], [ 128.644163509218941, 35.866886641672025 ], [ 128.643974468270784, 35.866777471180121 ], [ 128.643761278832955, 35.866662837880163 ], [ 128.643738620973124, 35.866651076420027 ], [ 128.643683163744981, 35.86662229208504 ], [ 128.6435473244224, 35.866558209751503 ], [ 128.64333448606564, 35.866464308165241 ], [ 128.643310278640968, 35.866454695358605 ], [ 128.643162315193422, 35.866395948896518 ], [ 128.643157774795867, 35.866394152025421 ], [ 128.643140937054113, 35.866388833492309 ], [ 128.64259178186262, 35.866215377488935 ], [ 128.642505151586136, 35.866190348382609 ], [ 128.642354273175812, 35.866153690659928 ], [ 128.642200848204141, 35.866117395945757 ], [ 128.641805957576594, 35.866051421779645 ], [ 128.641589857122142, 35.866029546490871 ], [ 128.641370771719181, 35.866011913055601 ], [ 128.641241750477576, 35.866005619884795 ], [ 128.641208953807251, 35.866004025568209 ], [ 128.641061668674809, 35.865999303126529 ], [ 128.641047249998195, 35.865998841452715 ], [ 128.640829397690652, 35.86599968627079 ], [ 128.64061542442272, 35.866003948632127 ], [ 128.640386175407485, 35.866018510780698 ], [ 128.640339928142424, 35.866022873390868 ], [ 128.640163107647993, 35.866039556430813 ], [ 128.63890125271837, 35.866173896003289 ], [ 128.637464900560502, 35.866698286848795 ], [ 128.635755476034745, 35.867335557485738 ], [ 128.635616229352678, 35.867374416657292 ], [ 128.635525744243608, 35.867394951259335 ], [ 128.635408430807701, 35.867421572460167 ], [ 128.635245194664179, 35.867444101730825 ], [ 128.635202197246542, 35.867446842210313 ], [ 128.6350391975771, 35.867457224975141 ], [ 128.634907897861211, 35.867457041080357 ], [ 128.634750840627476, 35.86745026474722 ], [ 128.63458275785743, 35.867435074421898 ], [ 128.632065400626686, 35.867057502187123 ], [ 128.631426139544999, 35.86695794068892 ], [ 128.63059355962028, 35.866828264898061 ], [ 128.630434337294474, 35.866803464890062 ], [ 128.629809376541488, 35.866706119551395 ], [ 128.630025729975699, 35.866935765322189 ], [ 128.630247713090938, 35.867176452298736 ], [ 128.630714035723486, 35.867683511798084 ], [ 128.633699510510269, 35.871042103388739 ], [ 128.635121110270092, 35.872005997054231 ], [ 128.635279842497653, 35.87205042857866 ], [ 128.636333030035331, 35.872347883869359 ], [ 128.637104365685587, 35.872565727642524 ], [ 128.638990932644333, 35.873099710059513 ], [ 128.639116736156268, 35.873172688181825 ], [ 128.639492538074336, 35.873393133585914 ], [ 128.63958806684721, 35.873450413797244 ], [ 128.640357095109096, 35.873907810160802 ], [ 128.641837346909284, 35.87478443527727 ], [ 128.642955582750744, 35.875446014748164 ], [ 128.64317804077524, 35.875577504759271 ], [ 128.64373119145381, 35.875904452442406 ], [ 128.644655104731839, 35.876448820844224 ], [ 128.644954420279817, 35.876607246481029 ], [ 128.644979717414714, 35.87657157868648 ], [ 128.645083488739004, 35.876425273001132 ], [ 128.64880286621505, 35.877806593732309 ], [ 128.651085963701291, 35.878327685863951 ] ] ] } },
{ "type": "Feature", "properties": { "adm_cd": "22060560", "adm_name": "대구광역시 수성구 만촌2동", "population": 10494, "elderly_population": 2150, "temperature": 26.1, "humidity": 52.0, "weather_base_date": "20260811", "weather_base_time": "0900", "weather_source": "KMA observation T1H/REH" }, "geometry": { "type": "Polygon", "coordinates": [ [ [ 128.649996191257458, 35.866021940623149 ], [ 128.649971690692382, 35.86479031260648 ], [ 128.652289239365103, 35.862057823072476 ], [ 128.65311056064138, 35.861872784346744 ], [ 128.65406020098456, 35.863373827659167 ], [ 128.653727399152416, 35.864501339973813 ], [ 128.653630244147593, 35.864727481965943 ], [ 128.65349644729028, 35.864855320154206 ], [ 128.653425398519715, 35.864913119606271 ], [ 128.653390879934562, 35.864950131786202 ], [ 128.652862365823921, 35.865872571775277 ], [ 128.652849909233112, 35.865935692117027 ], [ 128.652858638873056, 35.866032314736579 ], [ 128.652875107660492, 35.866109003585102 ], [ 128.653012398715617, 35.866413133332777 ], [ 128.653103510585822, 35.866488090507985 ], [ 128.654405725255657, 35.86735307542331 ], [ 128.656571230435105, 35.866588250085613 ], [ 128.656643595810124, 35.866520349504412 ], [ 128.656772146264785, 35.866262155461023 ], [ 128.65736245284802, 35.864825050255348 ], [ 128.657897182544758, 35.863536946075087 ], [ 128.65878802770186, 35.861924704813248 ], [ 128.658231234570337, 35.86178006252257 ], [ 128.656250555256463, 35.861011281818648 ], [ 128.656930618117286, 35.858743947751215 ], [ 128.658443095065024, 35.856823620820407 ], [ 128.658929447811914, 35.856759906947026 ], [ 128.659010765255914, 35.856748080199957 ], [ 128.661553451166753, 35.855502064290015 ], [ 128.660198885024329, 35.853146740909516 ], [ 128.659106194873743, 35.852996012650706 ], [ 128.659089360745696, 35.852993784128422 ], [ 128.659072527054519, 35.852991737714291 ], [ 128.65905558211935, 35.852989961035327 ], [ 128.659038528128292, 35.852988452267248 ], [ 128.6590215831244, 35.852987127264747 ], [ 128.659004529103669, 35.852986072877407 ], [ 128.658987474564128, 35.852985287156969 ], [ 128.658970421733272, 35.852984770983497 ], [ 128.65895336716315, 35.852984439643791 ], [ 128.658936203483677, 35.852984372609143 ], [ 128.658919151018154, 35.852984490220244 ], [ 128.658902098033053, 35.85298487649824 ], [ 128.6588850445807, 35.85298553504888 ], [ 128.658867992822934, 35.852986462245084 ], [ 128.658850939285657, 35.852987571570793 ], [ 128.658833887416449, 35.852988947739178 ], [ 128.658816948085303, 35.852990599598051 ], [ 128.658800006895518, 35.852992428177856 ], [ 128.658783175924015, 35.852994525258111 ], [ 128.658766346698684, 35.852996894589729 ], [ 128.658749517907495, 35.85299944602955 ], [ 128.65873279934732, 35.853002266871336 ], [ 128.658716081194797, 35.853005268018492 ], [ 128.65869947455846, 35.853008626907993 ], [ 128.658682980036957, 35.8530120802791 ], [ 128.658666484038406, 35.853015888876101 ], [ 128.658650099251616, 35.85301988211932 ], [ 128.658633823383326, 35.853024054621564 ], [ 128.658617661271137, 35.853028586647852 ], [ 128.658601609006354, 35.853033209571592 ], [ 128.658585558433629, 35.853038101141202 ], [ 128.658569728842707, 35.853043262848274 ], [ 128.658553897469972, 35.853048606685192 ], [ 128.658538289280187, 35.853054219736912 ], [ 128.654230404188695, 35.854728651049797 ], [ 128.654203947700239, 35.854739056769901 ], [ 128.654177602358175, 35.854749643531207 ], [ 128.654151256101045, 35.854760320451412 ], [ 128.654125023204614, 35.854771178391687 ], [ 128.654098789366827, 35.854782124688043 ], [ 128.654072776096939, 35.854793160818872 ], [ 128.654046763244367, 35.854804379054919 ], [ 128.654020749450126, 35.854815685647097 ], [ 128.654011039575295, 35.854819975669905 ], [ 128.653994959532497, 35.854827081140705 ], [ 128.653969167843343, 35.854838660563715 ], [ 128.653943489275889, 35.854850328148999 ], [ 128.653917919613065, 35.854862174994487 ], [ 128.653892349942538, 35.854874021834682 ], [ 128.653866891417238, 35.854886049716768 ], [ 128.653841543997856, 35.854898255936554 ], [ 128.653816308657866, 35.854910554836685 ], [ 128.653791184250736, 35.854922943723622 ], [ 128.653766056686663, 35.854935420988369 ], [ 128.653741153210717, 35.854948078210704 ], [ 128.653716248844489, 35.854960827395452 ], [ 128.653691347056338, 35.854973755058857 ], [ 128.653666662314691, 35.854986682436042 ], [ 128.653642092039405, 35.854999790823825 ], [ 128.653281153363224, 35.855197523078651 ], [ 128.649799839304109, 35.857104612327653 ], [ 128.647937511833931, 35.858058248462086 ], [ 128.642801848513415, 35.858861572846095 ], [ 128.640466341848622, 35.858876770822057 ], [ 128.63890125271837, 35.866173896003289 ], [ 128.640163107647993, 35.866039556430813 ], [ 128.640339928142424, 35.866022873390868 ], [ 128.640386175407485, 35.866018510780698 ], [ 128.64061542442272, 35.866003948632127 ], [ 128.640829397690652, 35.86599968627079 ], [ 128.641047249998195, 35.865998841452715 ], [ 128.641061668674809, 35.865999303126529 ], [ 128.641208953807251, 35.866004025568209 ], [ 128.641241750477576, 35.866005619884795 ], [ 128.641370771719181, 35.866011913055601 ], [ 128.641589857122142, 35.866029546490871 ], [ 128.641805957576594, 35.866051421779645 ], [ 128.642200848204141, 35.866117395945757 ], [ 128.642354273175812, 35.866153690659928 ], [ 128.642505151586136, 35.866190348382609 ], [ 128.64259178186262, 35.866215377488935 ], [ 128.643140937054113, 35.866388833492309 ], [ 128.643157774795867, 35.866394152025421 ], [ 128.643162315193422, 35.866395948896518 ], [ 128.643310278640968, 35.866454695358605 ], [ 128.64333448606564, 35.866464308165241 ], [ 128.6435473244224, 35.866558209751503 ], [ 128.643683163744981, 35.86662229208504 ], [ 128.643738620973124, 35.866651076420027 ], [ 128.643761278832955, 35.866662837880163 ], [ 128.643974468270784, 35.866777471180121 ], [ 128.644163509218941, 35.866886641672025 ], [ 128.644172040619196, 35.866891767808312 ], [ 128.64432751787129, 35.866991519096857 ], [ 128.644772609576819, 35.867305189051173 ], [ 128.644904714975496, 35.867398823452064 ], [ 128.645171100278986, 35.867589970310966 ], [ 128.647496135220933, 35.869260372984712 ], [ 128.648430885499067, 35.869939801877877 ], [ 128.649055724513772, 35.869624643799391 ], [ 128.649395178906786, 35.868869899016566 ], [ 128.649533867618004, 35.868405624257491 ], [ 128.649734052889642, 35.867611867356636 ], [ 128.649996191257458, 35.866021940623149 ] ] ] } },
{ "type": "Feature", "properties": { "adm_cd": "22060570", "adm_name": "대구광역시 수성구 만촌3동", "population": 21050, "elderly_population": 2424, "temperature": 26.1, "humidity": 52.0, "weather_base_date": "20260811", "weather_base_time": "0900", "weather_source": "KMA observation T1H/REH" }, "geometry": { "type": "Polygon", "coordinates": [ [ [ 128.647937511833931, 35.858058248462086 ], [ 128.649799839304109, 35.857104612327653 ], [ 128.653281153363224, 35.855197523078651 ], [ 128.653642092039405, 35.854999790823825 ], [ 128.653666662314691, 35.854986682436042 ], [ 128.653691347056338, 35.854973755058857 ], [ 128.653716248844489, 35.854960827395452 ], [ 128.653741153210717, 35.854948078210704 ], [ 128.653766056686663, 35.854935420988369 ], [ 128.653791184250736, 35.854922943723622 ], [ 128.653816308657866, 35.854910554836685 ], [ 128.653841543997856, 35.854898255936554 ], [ 128.653866891417238, 35.854886049716768 ], [ 128.653892349942538, 35.854874021834682 ], [ 128.653917919613065, 35.854862174994487 ], [ 128.653943489275889, 35.854850328148999 ], [ 128.653969167843343, 35.854838660563715 ], [ 128.653994959532497, 35.854827081140705 ], [ 128.654011039575295, 35.854819975669905 ], [ 128.654020749450126, 35.854815685647097 ], [ 128.654046763244367, 35.854804379054919 ], [ 128.654072776096939, 35.854793160818872 ], [ 128.654098789366827, 35.854782124688043 ], [ 128.654125023204614, 35.854771178391687 ], [ 128.654151256101045, 35.854760320451412 ], [ 128.654177602358175, 35.854749643531207 ], [ 128.654203947700239, 35.854739056769901 ], [ 128.654230404188695, 35.854728651049797 ], [ 128.658538289280187, 35.853054219736912 ], [ 128.658553897469972, 35.853048606685192 ], [ 128.658569728842707, 35.853043262848274 ], [ 128.658585558433629, 35.853038101141202 ], [ 128.658601609006354, 35.853033209571592 ], [ 128.658617661271137, 35.853028586647852 ], [ 128.658633823383326, 35.853024054621564 ], [ 128.658650099251616, 35.85301988211932 ], [ 128.658666484038406, 35.853015888876101 ], [ 128.658682980036957, 35.8530120802791 ], [ 128.65869947455846, 35.853008626907993 ], [ 128.658716081194797, 35.853005268018492 ], [ 128.65873279934732, 35.853002266871336 ], [ 128.658749517907495, 35.85299944602955 ], [ 128.658766346698684, 35.852996894589729 ], [ 128.658783175924015, 35.852994525258111 ], [ 128.658800006895518, 35.852992428177856 ], [ 128.658816948085303, 35.852990599598051 ], [ 128.658833887416449, 35.852988947739178 ], [ 128.658850939285657, 35.852987571570793 ], [ 128.658867992822934, 35.852986462245084 ], [ 128.6588850445807, 35.85298553504888 ], [ 128.658902098033053, 35.85298487649824 ], [ 128.658919151018154, 35.852984490220244 ], [ 128.658936203483677, 35.852984372609143 ], [ 128.65895336716315, 35.852984439643791 ], [ 128.658970421733272, 35.852984770983497 ], [ 128.658987474564128, 35.852985287156969 ], [ 128.659004529103669, 35.852986072877407 ], [ 128.6590215831244, 35.852987127264747 ], [ 128.659038528128292, 35.852988452267248 ], [ 128.65905558211935, 35.852989961035327 ], [ 128.659072527054519, 35.852991737714291 ], [ 128.659089360745696, 35.852993784128422 ], [ 128.659106194873743, 35.852996012650706 ], [ 128.660198885024329, 35.853146740909516 ], [ 128.660259566617157, 35.853101645886142 ], [ 128.660304040636163, 35.853010310482837 ], [ 128.660361952818732, 35.852891375704679 ], [ 128.660712398794601, 35.851610681103651 ], [ 128.658545649087245, 35.848666186129932 ], [ 128.655846289624691, 35.846556015763269 ], [ 128.654357800378193, 35.845425438693518 ], [ 128.651059279998918, 35.843044558919438 ], [ 128.650859500255279, 35.842922670298876 ], [ 128.650559393990193, 35.842760506480062 ], [ 128.646843530312083, 35.841366108470169 ], [ 128.646208236337571, 35.841245343157901 ], [ 128.646329118821171, 35.841927964537319 ], [ 128.646563789730209, 35.844890131198376 ], [ 128.646437162078655, 35.845339278006008 ], [ 128.646416251021378, 35.84541039787905 ], [ 128.645732867689304, 35.847401490523303 ], [ 128.644899967166509, 35.848158736574291 ], [ 128.643135883083005, 35.847944344496597 ], [ 128.642862988651643, 35.849165426459855 ], [ 128.642890885165656, 35.852631776649176 ], [ 128.642971009724761, 35.852709008359078 ], [ 128.643392134511771, 35.853146083982018 ], [ 128.644186702065355, 35.854452726401163 ], [ 128.644591581997645, 35.855620092638311 ], [ 128.643688043050986, 35.857940949490477 ], [ 128.642801848513415, 35.858861572846095 ], [ 128.647937511833931, 35.858058248462086 ] ] ] } },
{ "type": "Feature", "properties": { "adm_cd": "22060580", "adm_name": "대구광역시 수성구 수성1가동", "population": 16331, "elderly_population": 3790, "temperature": 27.1, "humidity": 50.0, "weather_base_date": "20260811", "weather_base_time": "0900", "weather_source": "KMA observation T1H/REH" }, "geometry": { "type": "Polygon", "coordinates": [ [ [ 128.610211967646649, 35.860675323089652 ], [ 128.614083456252104, 35.859682779651877 ], [ 128.613256280019215, 35.851091196867969 ], [ 128.612916023203525, 35.849465791756003 ], [ 128.609509172254434, 35.848077319672683 ], [ 128.609432596998573, 35.84807750295721 ], [ 128.609342137123122, 35.848077719724721 ], [ 128.608004644425051, 35.848080917542802 ], [ 128.607992882524087, 35.84808094576843 ], [ 128.608248549295297, 35.849130435052238 ], [ 128.608810099437989, 35.852408332318795 ], [ 128.608831075914253, 35.853140617274732 ], [ 128.608835032692923, 35.853278752504949 ], [ 128.608829514125119, 35.853543875583512 ], [ 128.608828190923674, 35.853607429954835 ], [ 128.608811680452988, 35.853687448189923 ], [ 128.608780718633824, 35.853837499770947 ], [ 128.60874839348017, 35.853994154348044 ], [ 128.608691470811436, 35.854260240416671 ], [ 128.608310153586785, 35.854905982471493 ], [ 128.608244103436988, 35.855017707584324 ], [ 128.608181545004754, 35.855346348019111 ], [ 128.608127401070817, 35.855630782906381 ], [ 128.608123603437491, 35.855674854766733 ], [ 128.608112690111028, 35.855801584420682 ], [ 128.608093071314329, 35.856056611006927 ], [ 128.608091423504078, 35.85607818256927 ], [ 128.608036452075311, 35.856798423265559 ], [ 128.608018929615326, 35.857028005502741 ], [ 128.608000249965585, 35.857278134193521 ], [ 128.607988988924262, 35.857428924308067 ], [ 128.607991141787039, 35.858283193472843 ], [ 128.607991175094327, 35.858295772665613 ], [ 128.608025046190079, 35.858585150294317 ], [ 128.608032053443708, 35.858644998089254 ], [ 128.608048751873639, 35.858763688923204 ], [ 128.608098142719399, 35.859114720045547 ], [ 128.608144790446175, 35.85944623686941 ], [ 128.608209501932265, 35.859741378483818 ], [ 128.608224069113334, 35.859807812749395 ], [ 128.608667714510062, 35.860793707514652 ], [ 128.609379462614896, 35.861151670872296 ], [ 128.610211967646649, 35.860675323089652 ] ] ] } },
{ "type": "Feature", "properties": { "adm_cd": "22060590", "adm_name": "대구광역시 수성구 수성2·3가동", "population": 10059, "elderly_population": 1989, "temperature": 27.1, "humidity": 50.0, "weather_base_date": "20260811", "weather_base_time": "0900", "weather_source": "KMA observation T1H/REH" }, "geometry": { "type": "Polygon", "coordinates": [ [ [ 128.61991552009809, 35.859437532037283 ], [ 128.621452515572798, 35.859447797738547 ], [ 128.620624508699933, 35.850612557906395 ], [ 128.616774740640125, 35.850870510506113 ], [ 128.613256280019215, 35.851091196867969 ], [ 128.614083456252104, 35.859682779651877 ], [ 128.61991552009809, 35.859437532037283 ] ] ] } },
{ "type": "Feature", "properties": { "adm_cd": "22060600", "adm_name": "대구광역시 수성구 수성4가동", "population": 12864, "elderly_population": 3294, "temperature": 27.1, "humidity": 50.0, "weather_base_date": "20260811", "weather_base_time": "0900", "weather_source": "KMA observation T1H/REH" }, "geometry": { "type": "Polygon", "coordinates": [ [ [ 128.615134581223259, 35.867749005320363 ], [ 128.616577192224497, 35.867777228744828 ], [ 128.616698580724602, 35.86777284662076 ], [ 128.616799475209262, 35.867766597549739 ], [ 128.617131716596418, 35.86771328591216 ], [ 128.617447864779791, 35.867594098212258 ], [ 128.617850778246776, 35.867350763465502 ], [ 128.617890708399329, 35.867246866630552 ], [ 128.617906958719601, 35.866919179500535 ], [ 128.61790367419286, 35.866830829220632 ], [ 128.617902643455352, 35.866813276420324 ], [ 128.617863581427372, 35.866612904845475 ], [ 128.617748224651592, 35.866283288678751 ], [ 128.617746888622548, 35.866280667652653 ], [ 128.617658091295851, 35.866106621814538 ], [ 128.617350791306706, 35.865754249536771 ], [ 128.621976406008713, 35.862689704519724 ], [ 128.622264074744862, 35.862048161831417 ], [ 128.622419470747502, 35.861491318118027 ], [ 128.622462568500794, 35.861333061206608 ], [ 128.622462344449701, 35.861328010954757 ], [ 128.622446661489136, 35.861018831156301 ], [ 128.622248015780457, 35.859623078586409 ], [ 128.622056905858699, 35.859456177159103 ], [ 128.621452515572798, 35.859447797738547 ], [ 128.61991552009809, 35.859437532037283 ], [ 128.614083456252104, 35.859682779651877 ], [ 128.610211967646649, 35.860675323089652 ], [ 128.609379462614896, 35.861151670872296 ], [ 128.60951074592748, 35.861772799337288 ], [ 128.611406983747543, 35.863211138781594 ], [ 128.612391282675333, 35.863692571391965 ], [ 128.612692362422791, 35.863853602106175 ], [ 128.612900769592102, 35.864069937700883 ], [ 128.613173631455567, 35.864506696949718 ], [ 128.613288666151533, 35.864690829574847 ], [ 128.613525270536712, 35.865098183267605 ], [ 128.613602170314778, 35.865245421963408 ], [ 128.613669528076372, 35.865378383596152 ], [ 128.614664464972066, 35.868135535504003 ], [ 128.614844032759834, 35.868118130563836 ], [ 128.615134581223259, 35.867749005320363 ] ] ] } },
{ "type": "Feature", "properties": { "adm_cd": "22060610", "adm_name": "대구광역시 수성구 황금1동", "population": 21069, "elderly_population": 3334, "temperature": 26.1, "humidity": 52.0, "weather_base_date": "20260811", "weather_base_time": "0900", "weather_source": "KMA observation T1H/REH" }, "geometry": { "type": "Polygon", "coordinates": [ [ [ 128.63478497501788, 35.850013062591806 ], [ 128.635670796295841, 35.850186571908317 ], [ 128.637057435528277, 35.850309923507886 ], [ 128.637666540493001, 35.8488502474261 ], [ 128.639206189230009, 35.847092359484186 ], [ 128.639304031896131, 35.8470777072963 ], [ 128.63932952350595, 35.847073890887508 ], [ 128.639489075122526, 35.847050069621197 ], [ 128.639497145922803, 35.847048869734529 ], [ 128.641152592166009, 35.846805721633892 ], [ 128.641591457278736, 35.846951054889971 ], [ 128.642111298086888, 35.847125211460892 ], [ 128.642574851213737, 35.847474616263284 ], [ 128.643135883083005, 35.847944344496597 ], [ 128.644899967166509, 35.848158736574291 ], [ 128.645732867689304, 35.847401490523303 ], [ 128.646416251021378, 35.84541039787905 ], [ 128.646437162078655, 35.845339278006008 ], [ 128.646563789730209, 35.844890131198376 ], [ 128.646329118821171, 35.841927964537319 ], [ 128.646208236337571, 35.841245343157901 ], [ 128.645997221017382, 35.840896699061332 ], [ 128.645830786107524, 35.84053980570647 ], [ 128.646689002769392, 35.836807702233479 ], [ 128.64708727395805, 35.836296998881927 ], [ 128.647378911110195, 35.836259212376575 ], [ 128.64625895533004, 35.835388750267143 ], [ 128.644104586049309, 35.833388503172763 ], [ 128.644254411954705, 35.832910514321227 ], [ 128.6442148495818, 35.832605335255401 ], [ 128.643539429599798, 35.831295563970194 ], [ 128.643225872727442, 35.830986714731303 ], [ 128.642826119559288, 35.830592978191525 ], [ 128.640326922858492, 35.830131497574612 ], [ 128.639990327038447, 35.830894602475269 ], [ 128.63995384509181, 35.832070523759285 ], [ 128.638923398623945, 35.833640221792074 ], [ 128.637036500048538, 35.835128687338667 ], [ 128.63665507734936, 35.8353186199774 ], [ 128.636436838277035, 35.835427290287683 ], [ 128.635759705897868, 35.835099352848673 ], [ 128.635609397912361, 35.834853094170988 ], [ 128.635307562098177, 35.834352468244454 ], [ 128.634639410701084, 35.83417469580445 ], [ 128.632059507108522, 35.834141533018112 ], [ 128.630125813461859, 35.83581948357385 ], [ 128.629857851014975, 35.836092705903908 ], [ 128.629872143364224, 35.836271719390943 ], [ 128.630036477820056, 35.838141948425253 ], [ 128.630040940809323, 35.8381919738626 ], [ 128.629702934796114, 35.839199525798826 ], [ 128.628222023112841, 35.839028676620181 ], [ 128.626504467027758, 35.839236541443825 ], [ 128.626980977270534, 35.839442765935296 ], [ 128.627416941144958, 35.839728422507612 ], [ 128.62747521977235, 35.839791360168299 ], [ 128.627534720964263, 35.839862048786117 ], [ 128.627609459461667, 35.840043778756062 ], [ 128.627662912598993, 35.840179739528367 ], [ 128.627651705010777, 35.840828987227937 ], [ 128.627588898415155, 35.841131326146304 ], [ 128.627421123662629, 35.841352004577324 ], [ 128.627391463109177, 35.841391012210032 ], [ 128.627382469084097, 35.841402842157535 ], [ 128.627129044782805, 35.841769339241999 ], [ 128.627472556347868, 35.842780583832699 ], [ 128.628598300390053, 35.844601431426199 ], [ 128.629529955965864, 35.845468333653415 ], [ 128.630266258931613, 35.846080154376359 ], [ 128.630673446210949, 35.846002673831649 ], [ 128.630990968101827, 35.846269993544134 ], [ 128.63202469358319, 35.847247658120182 ], [ 128.63180538341021, 35.847739838323726 ], [ 128.631689992598098, 35.84852498265635 ], [ 128.631765606627738, 35.848982193318854 ], [ 128.632529522824399, 35.850322668636899 ], [ 128.633068219284354, 35.850401450994873 ], [ 128.63478497501788, 35.850013062591806 ] ] ] } },
{ "type": "Feature", "properties": { "adm_cd": "22060620", "adm_name": "대구광역시 수성구 황금2동", "population": 11388, "elderly_population": 2486, "temperature": 27.1, "humidity": 50.0, "weather_base_date": "20260811", "weather_base_time": "0900", "weather_source": "KMA observation T1H/REH" }, "geometry": { "type": "Polygon", "coordinates": [ [ [ 128.624381194393777, 35.850375601421199 ], [ 128.624663417887206, 35.850383481174681 ], [ 128.625273290843495, 35.850366239820552 ], [ 128.625806217755155, 35.849340181667351 ], [ 128.626080254518058, 35.848219848019262 ], [ 128.626429481036297, 35.847948080273341 ], [ 128.62660478245644, 35.847904824172886 ], [ 128.627843326199496, 35.84761089296758 ], [ 128.628856230831758, 35.847550904953927 ], [ 128.62950710523873, 35.847525118662674 ], [ 128.629529947933065, 35.847524213326693 ], [ 128.629548780962836, 35.847523465589234 ], [ 128.629860571966702, 35.847112891030868 ], [ 128.630266258931613, 35.846080154376359 ], [ 128.629529955965864, 35.845468333653415 ], [ 128.628598300390053, 35.844601431426199 ], [ 128.627472556347868, 35.842780583832699 ], [ 128.627129044782805, 35.841769339241999 ], [ 128.627382469084097, 35.841402842157535 ], [ 128.627391463109177, 35.841391012210032 ], [ 128.627421123662629, 35.841352004577324 ], [ 128.627588898415155, 35.841131326146304 ], [ 128.627651705010777, 35.840828987227937 ], [ 128.627662912598993, 35.840179739528367 ], [ 128.627609459461667, 35.840043778756062 ], [ 128.627534720964263, 35.839862048786117 ], [ 128.62747521977235, 35.839791360168299 ], [ 128.627416941144958, 35.839728422507612 ], [ 128.626980977270534, 35.839442765935296 ], [ 128.626504467027758, 35.839236541443825 ], [ 128.624108442119876, 35.839794159685503 ], [ 128.616750932451424, 35.840415045396924 ], [ 128.616750136707026, 35.850695837852989 ], [ 128.616774740640125, 35.850870510506113 ], [ 128.620624508699933, 35.850612557906395 ], [ 128.624381194393777, 35.850375601421199 ] ] ] } },
{ "type": "Feature", "properties": { "adm_cd": "22060630", "adm_name": "대구광역시 수성구 중동", "population": 14553, "elderly_population": 2948, "temperature": 27.1, "humidity": 50.0, "weather_base_date": "20260811", "weather_base_time": "0900", "weather_source": "KMA observation T1H/REH" }, "geometry": { "type": "Polygon", "coordinates": [ [ [ 128.616750136707026, 35.850695837852989 ], [ 128.616750932451424, 35.840415045396924 ], [ 128.615758928324112, 35.840510745094065 ], [ 128.612078248286053, 35.840801746674096 ], [ 128.612072250601017, 35.84076091803388 ], [ 128.612058358912861, 35.840644466189836 ], [ 128.611958266275167, 35.839640986372956 ], [ 128.611946228695075, 35.839457910634273 ], [ 128.611922356410815, 35.83917569744699 ], [ 128.611916507631378, 35.839106569093452 ], [ 128.61186059550036, 35.838719760688427 ], [ 128.609619483068968, 35.838823371800075 ], [ 128.606992246837137, 35.839128080514655 ], [ 128.607128771516386, 35.839298123718891 ], [ 128.607265487822644, 35.839535686814664 ], [ 128.60737459931309, 35.839933519323388 ], [ 128.607398313584724, 35.840019984459012 ], [ 128.607510622293802, 35.840977752949932 ], [ 128.607530449858615, 35.841177419193919 ], [ 128.607538296058294, 35.841256438458494 ], [ 128.607559195360551, 35.841466918095392 ], [ 128.607544163281347, 35.841705850524598 ], [ 128.607531024779519, 35.841914614458616 ], [ 128.60753381213479, 35.842532022683919 ], [ 128.607580816231916, 35.842787519298241 ], [ 128.607621577441506, 35.843009066410616 ], [ 128.608082371502121, 35.844740659474155 ], [ 128.607992882524087, 35.84808094576843 ], [ 128.608004644425051, 35.848080917542802 ], [ 128.609342137123122, 35.848077719724721 ], [ 128.609432596998573, 35.84807750295721 ], [ 128.609509172254434, 35.848077319672683 ], [ 128.612916023203525, 35.849465791756003 ], [ 128.613256280019215, 35.851091196867969 ], [ 128.616774740640125, 35.850870510506113 ], [ 128.616750136707026, 35.850695837852989 ] ] ] } },
{ "type": "Feature", "properties": { "adm_cd": "22060640", "adm_name": "대구광역시 수성구 상동", "population": 14071, "elderly_population": 3896, "temperature": 27.1, "humidity": 50.0, "weather_base_date": "20260811", "weather_base_time": "0900", "weather_source": "KMA observation T1H/REH" }, "geometry": { "type": "Polygon", "coordinates": [ [ [ 128.616750953754149, 35.840396186280586 ], [ 128.616753019004733, 35.83862597813166 ], [ 128.616752415114547, 35.835347930854006 ], [ 128.616751881834972, 35.834180836554452 ], [ 128.616751664867934, 35.833708893604886 ], [ 128.616749797186628, 35.830392798598808 ], [ 128.616707009545593, 35.828937393018307 ], [ 128.616623338512511, 35.828891815567275 ], [ 128.616201909121486, 35.828916475554905 ], [ 128.616077814650623, 35.828923652338396 ], [ 128.615804830611609, 35.82893731974697 ], [ 128.61551402113588, 35.82894884038231 ], [ 128.615476161307669, 35.828949967146983 ], [ 128.615419927990246, 35.828950755950686 ], [ 128.6153814017039, 35.82895125056254 ], [ 128.61446198375674, 35.828879584187604 ], [ 128.614391241740265, 35.82887155630717 ], [ 128.614346075610484, 35.828866380000264 ], [ 128.614298018891589, 35.828847505036926 ], [ 128.614287721818641, 35.828843460520801 ], [ 128.61421225648499, 35.828789146653044 ], [ 128.614167233837975, 35.828747506010366 ], [ 128.614134669579698, 35.828709770837058 ], [ 128.614101327957115, 35.828666000565072 ], [ 128.614077287306571, 35.828627086446595 ], [ 128.613161361284796, 35.826198468669389 ], [ 128.611581040861722, 35.82594322621614 ], [ 128.61038477821387, 35.825258375156679 ], [ 128.60993336578656, 35.825021676931279 ], [ 128.609899102121403, 35.825011902124558 ], [ 128.609808208451, 35.824986633923274 ], [ 128.608622345598604, 35.825062229197215 ], [ 128.608298345140838, 35.825523554386315 ], [ 128.607656488624286, 35.827102644942194 ], [ 128.607594673233791, 35.827973995725806 ], [ 128.606879644134523, 35.830262292844765 ], [ 128.606235042393507, 35.832081932050841 ], [ 128.606146840564691, 35.832489581160033 ], [ 128.605719380560345, 35.835360572844515 ], [ 128.606440266132324, 35.839113729261982 ], [ 128.606848307619259, 35.839128745604555 ], [ 128.606883026982814, 35.839130022465071 ], [ 128.606992246837137, 35.839128080514655 ], [ 128.609619483068968, 35.838823371800075 ], [ 128.61186059550036, 35.838719760688427 ], [ 128.611916507631378, 35.839106569093452 ], [ 128.611922356410815, 35.83917569744699 ], [ 128.611946228695075, 35.839457910634273 ], [ 128.611958266275167, 35.839640986372956 ], [ 128.612058358912861, 35.840644466189836 ], [ 128.612072250601017, 35.84076091803388 ], [ 128.612078248286053, 35.840801746674096 ], [ 128.615758928324112, 35.840510745094065 ], [ 128.616750932451424, 35.840415045396924 ], [ 128.616750953754149, 35.840396186280586 ] ] ] } },
{ "type": "Feature", "properties": { "adm_cd": "22060650", "adm_name": "대구광역시 수성구 파동", "population": 14964, "elderly_population": 3599, "temperature": 27.1, "humidity": 50.0, "weather_base_date": "20260811", "weather_base_time": "0900", "weather_source": "KMA observation T1H/REH" }, "geometry": { "type": "Polygon", "coordinates": [ [ [ 128.607656488624286, 35.827102644942194 ], [ 128.608298345140838, 35.825523554386315 ], [ 128.608622345598604, 35.825062229197215 ], [ 128.609808208451, 35.824986633923274 ], [ 128.609899102121403, 35.825011902124558 ], [ 128.60993336578656, 35.825021676931279 ], [ 128.61038477821387, 35.825258375156679 ], [ 128.611581040861722, 35.82594322621614 ], [ 128.611478990852021, 35.825825693364244 ], [ 128.611428210145903, 35.825737676015912 ], [ 128.611376077227419, 35.825647310846584 ], [ 128.611338526979694, 35.825570172025337 ], [ 128.61134494516665, 35.82551980164174 ], [ 128.611378605960965, 35.825263834870434 ], [ 128.61146871668447, 35.824912784293957 ], [ 128.612479826480239, 35.824445102337378 ], [ 128.613128364150811, 35.824303152841743 ], [ 128.614155262562832, 35.823970766554311 ], [ 128.614385703739572, 35.823891123260566 ], [ 128.614626524963398, 35.823807049429206 ], [ 128.616357859847994, 35.823032989696394 ], [ 128.616793026061373, 35.822783059832283 ], [ 128.616961675201622, 35.82268619789351 ], [ 128.618159536079276, 35.821974039135441 ], [ 128.618313581108566, 35.821879731890377 ], [ 128.619626087227999, 35.82066200397739 ], [ 128.620168326120506, 35.820134212302449 ], [ 128.620354461831738, 35.819951383266684 ], [ 128.620885372317161, 35.819113903009566 ], [ 128.621649330758999, 35.817726421278991 ], [ 128.622012165371359, 35.816868859537628 ], [ 128.622032859753148, 35.816668394057046 ], [ 128.622666221907792, 35.816248220615577 ], [ 128.624283267478717, 35.815691421025377 ], [ 128.625613793968455, 35.815238323764703 ], [ 128.628494850457912, 35.813249250533886 ], [ 128.63238275307063, 35.81069040321136 ], [ 128.634039815134969, 35.80970681757627 ], [ 128.635145160381711, 35.809055258489437 ], [ 128.636010543976397, 35.808567748927466 ], [ 128.636706490229869, 35.80817568326561 ], [ 128.638450764011907, 35.806305917227228 ], [ 128.639457551277957, 35.805664659159824 ], [ 128.639755949096724, 35.805274044713947 ], [ 128.63990991750245, 35.804684748689048 ], [ 128.639979648728826, 35.804364875005952 ], [ 128.640287081822095, 35.802842556204062 ], [ 128.637712860038334, 35.803525893269729 ], [ 128.634524217155899, 35.803691037021821 ], [ 128.633308055100514, 35.803635060584803 ], [ 128.631647583465934, 35.803446871480958 ], [ 128.631014719867693, 35.803184473900423 ], [ 128.631014714702246, 35.803178254932234 ], [ 128.629140932007743, 35.80254372390624 ], [ 128.628818305003563, 35.802825672061694 ], [ 128.627806775117875, 35.803785956661677 ], [ 128.62673904692349, 35.804818244925059 ], [ 128.626520219030397, 35.804939139647317 ], [ 128.626340553881221, 35.805036275845112 ], [ 128.625796950543929, 35.805222128002406 ], [ 128.625343718981924, 35.805332500807189 ], [ 128.62308620652135, 35.805864290612632 ], [ 128.621115516775035, 35.805784011301775 ], [ 128.616387925753827, 35.803581543214193 ], [ 128.608812162469974, 35.804711609889935 ], [ 128.604698684707103, 35.805692656925224 ], [ 128.603490289955118, 35.806034725820034 ], [ 128.602404367744953, 35.806298856547336 ], [ 128.601485109910271, 35.80621185927825 ], [ 128.600625712194045, 35.80607719081685 ], [ 128.597557020624691, 35.805986744041448 ], [ 128.597124383978155, 35.80672891591626 ], [ 128.592357131281943, 35.809006147986487 ], [ 128.591485168018266, 35.809270225802067 ], [ 128.592317080408662, 35.811265252574096 ], [ 128.594298288173945, 35.813090447921773 ], [ 128.596507215644721, 35.813865897150144 ], [ 128.596974179707246, 35.813981439688455 ], [ 128.597139246049977, 35.814022281658318 ], [ 128.598171425069182, 35.814298867036371 ], [ 128.599833244056839, 35.814789801971052 ], [ 128.600677974298236, 35.815697737579058 ], [ 128.604121589258028, 35.822625569625053 ], [ 128.604248563434936, 35.823601444763945 ], [ 128.604618224095503, 35.825338131864733 ], [ 128.604954724913625, 35.826798790835063 ], [ 128.60549218822328, 35.827151395237692 ], [ 128.606126063867208, 35.827181707499896 ], [ 128.606839265792104, 35.827147077155992 ], [ 128.607656488624286, 35.827102644942194 ] ] ] } },
{ "type": "Feature", "properties": { "adm_cd": "22060660", "adm_name": "대구광역시 수성구 두산동", "population": 14401, "elderly_population": 2413, "temperature": 27.1, "humidity": 50.0, "weather_base_date": "20260811", "weather_base_time": "0900", "weather_source": "KMA observation T1H/REH" }, "geometry": { "type": "Polygon", "coordinates": [ [ [ 128.623258191970535, 35.83011792828097 ], [ 128.624051395382736, 35.83020075747767 ], [ 128.626800731574463, 35.830412596011669 ], [ 128.627232874434583, 35.83002704536699 ], [ 128.627927234609359, 35.828697760123653 ], [ 128.627949785466626, 35.828646887744767 ], [ 128.6279769565256, 35.828550125626677 ], [ 128.62798719267866, 35.828489588650044 ], [ 128.627985890698852, 35.828444528042233 ], [ 128.627983390100553, 35.828412554979572 ], [ 128.627967120583122, 35.828271912116421 ], [ 128.627434445038773, 35.827521523570184 ], [ 128.627423256150536, 35.827506276688105 ], [ 128.627411210846105, 35.827494818100881 ], [ 128.627401014888335, 35.827485120049751 ], [ 128.6273574857303, 35.827449000583918 ], [ 128.627130090711177, 35.827265275858593 ], [ 128.626856128341615, 35.827083664244377 ], [ 128.626690079952994, 35.826845215428364 ], [ 128.626533296480119, 35.826616173000055 ], [ 128.626400778018166, 35.826422525572092 ], [ 128.626392136270255, 35.826409825978899 ], [ 128.626364984803644, 35.826358748936237 ], [ 128.626142338017104, 35.825938795605467 ], [ 128.624764451155613, 35.822806067021155 ], [ 128.624894977956842, 35.820822789482584 ], [ 128.625723524629819, 35.820413631216326 ], [ 128.625892265314093, 35.819587954220474 ], [ 128.625540144533915, 35.818103867853431 ], [ 128.625426011601832, 35.81782819174061 ], [ 128.625163183838794, 35.817322206754348 ], [ 128.624602484363464, 35.816283037906047 ], [ 128.624283267478717, 35.815691421025377 ], [ 128.622666221907792, 35.816248220615577 ], [ 128.622032859753148, 35.816668394057046 ], [ 128.622012165371359, 35.816868859537628 ], [ 128.621649330758999, 35.817726421278991 ], [ 128.620885372317161, 35.819113903009566 ], [ 128.620354461831738, 35.819951383266684 ], [ 128.620168326120506, 35.820134212302449 ], [ 128.619626087227999, 35.82066200397739 ], [ 128.618313581108566, 35.821879731890377 ], [ 128.618159536079276, 35.821974039135441 ], [ 128.616961675201622, 35.82268619789351 ], [ 128.616793026061373, 35.822783059832283 ], [ 128.616357859847994, 35.823032989696394 ], [ 128.614626524963398, 35.823807049429206 ], [ 128.614385703739572, 35.823891123260566 ], [ 128.614155262562832, 35.823970766554311 ], [ 128.613128364150811, 35.824303152841743 ], [ 128.612479826480239, 35.824445102337378 ], [ 128.61146871668447, 35.824912784293957 ], [ 128.611378605960965, 35.825263834870434 ], [ 128.61134494516665, 35.82551980164174 ], [ 128.611338526979694, 35.825570172025337 ], [ 128.611376077227419, 35.825647310846584 ], [ 128.611428210145903, 35.825737676015912 ], [ 128.611478990852021, 35.825825693364244 ], [ 128.611581040861722, 35.82594322621614 ], [ 128.613161361284796, 35.826198468669389 ], [ 128.614077287306571, 35.828627086446595 ], [ 128.614101327957115, 35.828666000565072 ], [ 128.614134669579698, 35.828709770837058 ], [ 128.614167233837975, 35.828747506010366 ], [ 128.61421225648499, 35.828789146653044 ], [ 128.614287721818641, 35.828843460520801 ], [ 128.614298018891589, 35.828847505036926 ], [ 128.614346075610484, 35.828866380000264 ], [ 128.614391241740265, 35.82887155630717 ], [ 128.61446198375674, 35.828879584187604 ], [ 128.6153814017039, 35.82895125056254 ], [ 128.615419927990246, 35.828950755950686 ], [ 128.615476161307669, 35.828949967146983 ], [ 128.61551402113588, 35.82894884038231 ], [ 128.615804830611609, 35.82893731974697 ], [ 128.616077814650623, 35.828923652338396 ], [ 128.616201909121486, 35.828916475554905 ], [ 128.616623338512511, 35.828891815567275 ], [ 128.616707009545593, 35.828937393018307 ], [ 128.616749797186628, 35.830392798598808 ], [ 128.616751664867934, 35.833708893604886 ], [ 128.616751881834972, 35.834180836554452 ], [ 128.616752415114547, 35.835347930854006 ], [ 128.616753019004733, 35.83862597813166 ], [ 128.616750953754149, 35.840396186280586 ], [ 128.616750932451424, 35.840415045396924 ], [ 128.624108442119876, 35.839794159685503 ], [ 128.623258191970535, 35.83011792828097 ] ] ] } },
{ "type": "Feature", "properties": { "adm_cd": "22060670", "adm_name": "대구광역시 수성구 지산1동", "population": 18977, "elderly_population": 5397, "temperature": 26.1, "humidity": 52.0, "weather_base_date": "20260811", "weather_base_time": "0900", "weather_source": "KMA observation T1H/REH" }, "geometry": { "type": "Polygon", "coordinates": [ [ [ 128.628222023112841, 35.839028676620181 ], [ 128.629702934796114, 35.839199525798826 ], [ 128.630040940809323, 35.8381919738626 ], [ 128.630036477820056, 35.838141948425253 ], [ 128.629872143364224, 35.836271719390943 ], [ 128.629857851014975, 35.836092705903908 ], [ 128.630125813461859, 35.83581948357385 ], [ 128.632059507108522, 35.834141533018112 ], [ 128.634639410701084, 35.83417469580445 ], [ 128.635307562098177, 35.834352468244454 ], [ 128.635609397912361, 35.834853094170988 ], [ 128.635759705897868, 35.835099352848673 ], [ 128.636436838277035, 35.835427290287683 ], [ 128.63665507734936, 35.8353186199774 ], [ 128.637036500048538, 35.835128687338667 ], [ 128.638923398623945, 35.833640221792074 ], [ 128.63995384509181, 35.832070523759285 ], [ 128.639990327038447, 35.830894602475269 ], [ 128.640326922858492, 35.830131497574612 ], [ 128.642826119559288, 35.830592978191525 ], [ 128.643225872727442, 35.830986714731303 ], [ 128.643539429599798, 35.831295563970194 ], [ 128.6442148495818, 35.832605335255401 ], [ 128.644254411954705, 35.832910514321227 ], [ 128.644104586049309, 35.833388503172763 ], [ 128.64625895533004, 35.835388750267143 ], [ 128.647378911110195, 35.836259212376575 ], [ 128.647540193571984, 35.836238318477029 ], [ 128.647974787427387, 35.836182013054461 ], [ 128.649000655522997, 35.835786300316563 ], [ 128.649208164341047, 35.835655008625416 ], [ 128.649356643093029, 35.835561063105409 ], [ 128.652032281714469, 35.832365430492253 ], [ 128.652306955294932, 35.832000947962129 ], [ 128.652685615793814, 35.831433939491312 ], [ 128.653253698495035, 35.830555045192845 ], [ 128.652796841996604, 35.829271725647253 ], [ 128.652166001416646, 35.827907043625942 ], [ 128.652253441596201, 35.82711467851199 ], [ 128.653765101895317, 35.825593422918637 ], [ 128.652308229733165, 35.82564029393118 ], [ 128.652170964716476, 35.825839921313303 ], [ 128.651916763488913, 35.825999334570291 ], [ 128.650950638751283, 35.826112187679684 ], [ 128.648277586169172, 35.825371333214676 ], [ 128.64821557013488, 35.82534365812139 ], [ 128.648163068721743, 35.825309118652847 ], [ 128.647812035217243, 35.825049375775791 ], [ 128.647292477334418, 35.824611112886217 ], [ 128.646702366195711, 35.824124363108346 ], [ 128.646553927961946, 35.824002697855029 ], [ 128.646460129266671, 35.823956949370022 ], [ 128.642895495117557, 35.823541531262016 ], [ 128.639675529385471, 35.821109601475676 ], [ 128.639567785920036, 35.821029017075404 ], [ 128.638824713192605, 35.821532027262592 ], [ 128.638086846569706, 35.822031501754488 ], [ 128.636373939357327, 35.82314606351364 ], [ 128.636356568724693, 35.823157354867199 ], [ 128.63633908815234, 35.823168466944757 ], [ 128.636268720208932, 35.82321318450326 ], [ 128.636195247945324, 35.823253849083493 ], [ 128.636167807744982, 35.823268309940389 ], [ 128.631245206408209, 35.825769471247874 ], [ 128.631150772197714, 35.825803841516858 ], [ 128.627637264333657, 35.82708244012354 ], [ 128.627130090711177, 35.827265275858593 ], [ 128.6273574857303, 35.827449000583918 ], [ 128.627401014888335, 35.827485120049751 ], [ 128.627411210846105, 35.827494818100881 ], [ 128.627423256150536, 35.827506276688105 ], [ 128.627434445038773, 35.827521523570184 ], [ 128.627967120583122, 35.828271912116421 ], [ 128.627983390100553, 35.828412554979572 ], [ 128.627985890698852, 35.828444528042233 ], [ 128.62798719267866, 35.828489588650044 ], [ 128.6279769565256, 35.828550125626677 ], [ 128.627949785466626, 35.828646887744767 ], [ 128.627927234609359, 35.828697760123653 ], [ 128.627232874434583, 35.83002704536699 ], [ 128.626800731574463, 35.830412596011669 ], [ 128.624051395382736, 35.83020075747767 ], [ 128.623258191970535, 35.83011792828097 ], [ 128.624108442119876, 35.839794159685503 ], [ 128.626504467027758, 35.839236541443825 ], [ 128.628222023112841, 35.839028676620181 ] ] ] } },
{ "type": "Feature", "properties": { "adm_cd": "22060680", "adm_name": "대구광역시 수성구 지산2동", "population": 18171, "elderly_population": 4478, "temperature": 27.1, "humidity": 50.0, "weather_base_date": "20260811", "weather_base_time": "0900", "weather_source": "KMA observation T1H/REH" }, "geometry": { "type": "Polygon", "coordinates": [ [ [ 128.627637264333657, 35.82708244012354 ], [ 128.631150772197714, 35.825803841516858 ], [ 128.631245206408209, 35.825769471247874 ], [ 128.636167807744982, 35.823268309940389 ], [ 128.636195247945324, 35.823253849083493 ], [ 128.636268720208932, 35.82321318450326 ], [ 128.63633908815234, 35.823168466944757 ], [ 128.636356568724693, 35.823157354867199 ], [ 128.636373939357327, 35.82314606351364 ], [ 128.638086846569706, 35.822031501754488 ], [ 128.638824713192605, 35.821532027262592 ], [ 128.639567785920036, 35.821029017075404 ], [ 128.636552918072624, 35.820341001992624 ], [ 128.636544150924863, 35.820306836243745 ], [ 128.636541703576569, 35.820297295584254 ], [ 128.637983283639784, 35.815276760576566 ], [ 128.636481941536573, 35.811468100843783 ], [ 128.637362527869158, 35.810814313413829 ], [ 128.638552448613495, 35.81032915265147 ], [ 128.636706490229869, 35.80817568326561 ], [ 128.636010543976397, 35.808567748927466 ], [ 128.635145160381711, 35.809055258489437 ], [ 128.634039815134969, 35.80970681757627 ], [ 128.63238275307063, 35.81069040321136 ], [ 128.628494850457912, 35.813249250533886 ], [ 128.625613793968455, 35.815238323764703 ], [ 128.624283267478717, 35.815691421025377 ], [ 128.624602484363464, 35.816283037906047 ], [ 128.625163183838794, 35.817322206754348 ], [ 128.625426011601832, 35.81782819174061 ], [ 128.625540144533915, 35.818103867853431 ], [ 128.625892265314093, 35.819587954220474 ], [ 128.625723524629819, 35.820413631216326 ], [ 128.624894977956842, 35.820822789482584 ], [ 128.624764451155613, 35.822806067021155 ], [ 128.626142338017104, 35.825938795605467 ], [ 128.626364984803644, 35.826358748936237 ], [ 128.626392136270255, 35.826409825978899 ], [ 128.626400778018166, 35.826422525572092 ], [ 128.626533296480119, 35.826616173000055 ], [ 128.626690079952994, 35.826845215428364 ], [ 128.626856128341615, 35.827083664244377 ], [ 128.627130090711177, 35.827265275858593 ], [ 128.627637264333657, 35.82708244012354 ] ] ] } },
{ "type": "Feature", "properties": { "adm_cd": "22060690", "adm_name": "대구광역시 수성구 범물1동", "population": 9808, "elderly_population": 3966, "temperature": 27.5, "humidity": 51.0, "weather_base_date": "20260811", "weather_base_time": "0900", "weather_source": "KMA observation T1H/REH" }, "geometry": { "type": "Polygon", "coordinates": [ [ [ 128.652308229733165, 35.82564029393118 ], [ 128.653765101895317, 35.825593422918637 ], [ 128.654066299677766, 35.825322170946713 ], [ 128.654867179978453, 35.824570883253536 ], [ 128.655330157120574, 35.823166068599008 ], [ 128.655331721488437, 35.823158213570686 ], [ 128.655356187439622, 35.822367003029363 ], [ 128.655281984372181, 35.821769399483131 ], [ 128.655267517772046, 35.821715277070645 ], [ 128.655243480373287, 35.821194267643229 ], [ 128.65532620652931, 35.820884135326978 ], [ 128.655538714079796, 35.820395704460807 ], [ 128.655816437477284, 35.820020960669297 ], [ 128.656247756079864, 35.819658545249389 ], [ 128.656743450060873, 35.819248015293404 ], [ 128.656839659739148, 35.819168336852833 ], [ 128.657337425882872, 35.819261742119124 ], [ 128.657804942032783, 35.819294362129703 ], [ 128.659710697341495, 35.819259799185751 ], [ 128.666188569754951, 35.818345498232929 ], [ 128.668537549836515, 35.817709220011764 ], [ 128.669325062501656, 35.817401528301552 ], [ 128.669743388958352, 35.817230629974162 ], [ 128.670664434579749, 35.816828032416474 ], [ 128.670910949438735, 35.816683869498505 ], [ 128.671439630994627, 35.816307997403236 ], [ 128.672594425879367, 35.81535583059518 ], [ 128.672833139235763, 35.815158996691849 ], [ 128.672996736559668, 35.814653614494688 ], [ 128.672573698184749, 35.812261969855989 ], [ 128.671072884162385, 35.809581521352648 ], [ 128.670271286619197, 35.807890133760644 ], [ 128.670060635510367, 35.806564366946859 ], [ 128.672130226676529, 35.803232704808835 ], [ 128.673437177328481, 35.803065637080621 ], [ 128.676439158797052, 35.802458126773047 ], [ 128.677271969100531, 35.802286247959266 ], [ 128.67750244463042, 35.801452861681199 ], [ 128.677887666940961, 35.798777798361478 ], [ 128.677902402455032, 35.797491093161092 ], [ 128.677914810579153, 35.795376670670258 ], [ 128.677107939793757, 35.794040239651018 ], [ 128.67660902231458, 35.793792935986261 ], [ 128.674903642396686, 35.795165879703852 ], [ 128.672748521398148, 35.795267829226631 ], [ 128.669127568170438, 35.796064287257465 ], [ 128.668912759067155, 35.796328049060698 ], [ 128.668461328057219, 35.796850194725735 ], [ 128.664487756160838, 35.797894992348695 ], [ 128.662527849189473, 35.798392191829933 ], [ 128.661197397052518, 35.798509125995601 ], [ 128.66057351184719, 35.798528402660907 ], [ 128.656677879450797, 35.798583453326053 ], [ 128.653491734047748, 35.799257709332664 ], [ 128.653330178333363, 35.799350584435572 ], [ 128.652514138247255, 35.799819705137793 ], [ 128.651900052362777, 35.800611660282463 ], [ 128.651297140146966, 35.802825660210395 ], [ 128.651331221291713, 35.802823266512533 ], [ 128.651855517125398, 35.802970228139678 ], [ 128.651889458162259, 35.802979742608507 ], [ 128.651979673496498, 35.803015146316973 ], [ 128.652141874098731, 35.803078800322439 ], [ 128.653965169781173, 35.804847639584018 ], [ 128.654949629401898, 35.805802703223662 ], [ 128.655317344848839, 35.806206725867462 ], [ 128.652171110898166, 35.807748816912955 ], [ 128.651933072744924, 35.807823193752732 ], [ 128.651787300304818, 35.807868742066354 ], [ 128.651567086203784, 35.808364967427487 ], [ 128.651025957256138, 35.810206567401607 ], [ 128.650599733633925, 35.811741134933222 ], [ 128.650574259257496, 35.812564744610469 ], [ 128.650405440465249, 35.814076304649994 ], [ 128.650132769706289, 35.814369232305211 ], [ 128.649524681479306, 35.814782696377826 ], [ 128.648722709082051, 35.814893697311604 ], [ 128.648695180904383, 35.81490453665301 ], [ 128.648563580382131, 35.814956364835602 ], [ 128.645609027444465, 35.816228404647134 ], [ 128.645532908468425, 35.81626466260952 ], [ 128.645502262699296, 35.816280843859026 ], [ 128.645388645406825, 35.816346182954646 ], [ 128.645155584330695, 35.817014650121244 ], [ 128.644970432933604, 35.817501137584721 ], [ 128.644751519553779, 35.818076316772242 ], [ 128.643627027335242, 35.818748322906004 ], [ 128.639675529385471, 35.821109601475676 ], [ 128.642895495117557, 35.823541531262016 ], [ 128.646460129266671, 35.823956949370022 ], [ 128.646553927961946, 35.824002697855029 ], [ 128.646702366195711, 35.824124363108346 ], [ 128.647292477334418, 35.824611112886217 ], [ 128.647812035217243, 35.825049375775791 ], [ 128.648163068721743, 35.825309118652847 ], [ 128.64821557013488, 35.82534365812139 ], [ 128.648277586169172, 35.825371333214676 ], [ 128.650950638751283, 35.826112187679684 ], [ 128.651916763488913, 35.825999334570291 ], [ 128.652170964716476, 35.825839921313303 ], [ 128.652308229733165, 35.82564029393118 ] ] ] } },
{ "type": "Feature", "properties": { "adm_cd": "22060700", "adm_name": "대구광역시 수성구 범물2동", "population": 15220, "elderly_population": 3332, "temperature": 27.5, "humidity": 51.0, "weather_base_date": "20260811", "weather_base_time": "0900", "weather_source": "KMA observation T1H/REH" }, "geometry": { "type": "Polygon", "coordinates": [ [ [ 128.643627027335242, 35.818748322906004 ], [ 128.644751519553779, 35.818076316772242 ], [ 128.644970432933604, 35.817501137584721 ], [ 128.645155584330695, 35.817014650121244 ], [ 128.645388645406825, 35.816346182954646 ], [ 128.645502262699296, 35.816280843859026 ], [ 128.645532908468425, 35.81626466260952 ], [ 128.645609027444465, 35.816228404647134 ], [ 128.648563580382131, 35.814956364835602 ], [ 128.648695180904383, 35.81490453665301 ], [ 128.648722709082051, 35.814893697311604 ], [ 128.649524681479306, 35.814782696377826 ], [ 128.650132769706289, 35.814369232305211 ], [ 128.650405440465249, 35.814076304649994 ], [ 128.650574259257496, 35.812564744610469 ], [ 128.650599733633925, 35.811741134933222 ], [ 128.651025957256138, 35.810206567401607 ], [ 128.651567086203784, 35.808364967427487 ], [ 128.651787300304818, 35.807868742066354 ], [ 128.651933072744924, 35.807823193752732 ], [ 128.652171110898166, 35.807748816912955 ], [ 128.655317344848839, 35.806206725867462 ], [ 128.654949629401898, 35.805802703223662 ], [ 128.653965169781173, 35.804847639584018 ], [ 128.652141874098731, 35.803078800322439 ], [ 128.651979673496498, 35.803015146316973 ], [ 128.651889458162259, 35.802979742608507 ], [ 128.651855517125398, 35.802970228139678 ], [ 128.651331221291713, 35.802823266512533 ], [ 128.651297140146966, 35.802825660210395 ], [ 128.6495472770373, 35.802936869671484 ], [ 128.646628707993756, 35.802476407229605 ], [ 128.644712315058712, 35.802225395629129 ], [ 128.642706085913346, 35.802120965489188 ], [ 128.640918530810296, 35.802283305539262 ], [ 128.640287081822095, 35.802842556204062 ], [ 128.639979648728826, 35.804364875005952 ], [ 128.63990991750245, 35.804684748689048 ], [ 128.639755949096724, 35.805274044713947 ], [ 128.639457551277957, 35.805664659159824 ], [ 128.638450764011907, 35.806305917227228 ], [ 128.636706490229869, 35.80817568326561 ], [ 128.638552448613495, 35.81032915265147 ], [ 128.637362527869158, 35.810814313413829 ], [ 128.636481941536573, 35.811468100843783 ], [ 128.637983283639784, 35.815276760576566 ], [ 128.636541703576569, 35.820297295584254 ], [ 128.636544150924863, 35.820306836243745 ], [ 128.636552918072624, 35.820341001992624 ], [ 128.639567785920036, 35.821029017075404 ], [ 128.639675529385471, 35.821109601475676 ], [ 128.643627027335242, 35.818748322906004 ] ] ] } },
{ "type": "Feature", "properties": { "adm_cd": "22060710", "adm_name": "대구광역시 수성구 고산1동", "population": 30653, "elderly_population": 4923, "temperature": 27.5, "humidity": 51.0, "weather_base_date": "20260811", "weather_base_time": "0900", "weather_source": "KMA observation T1H/REH" }, "geometry": { "type": "Polygon", "coordinates": [ [ [ 128.705607600678235, 35.840705657480726 ], [ 128.706652454693824, 35.840649338870556 ], [ 128.708078744287974, 35.840094776743406 ], [ 128.708329015069182, 35.839977212844047 ], [ 128.708452360373855, 35.839919271823206 ], [ 128.709675737736688, 35.839346930573015 ], [ 128.712503751353438, 35.838024177812365 ], [ 128.712510356441385, 35.83802109185617 ], [ 128.712697641743006, 35.837937026971716 ], [ 128.71581285360142, 35.836681110962566 ], [ 128.717176059718099, 35.836347695767017 ], [ 128.719188888561604, 35.835856894518685 ], [ 128.718033606416526, 35.834888442125589 ], [ 128.715488795872744, 35.833178667921842 ], [ 128.71479868512003, 35.832727518316581 ], [ 128.71162950505709, 35.829859001570327 ], [ 128.711285877673646, 35.829539375000294 ], [ 128.7109065590532, 35.829106979773336 ], [ 128.710720430660274, 35.828892932386211 ], [ 128.710372630576927, 35.828428731875498 ], [ 128.710363877530767, 35.828369355178857 ], [ 128.710353678101654, 35.828299735139758 ], [ 128.710336751846796, 35.828182854743147 ], [ 128.710327672566848, 35.828120143764849 ], [ 128.709808681776167, 35.827814695004456 ], [ 128.708908053917639, 35.826904265081275 ], [ 128.708637344876706, 35.826567935870443 ], [ 128.708622989947486, 35.826381994401942 ], [ 128.708570624391797, 35.823372126443303 ], [ 128.708618937450922, 35.823125593886381 ], [ 128.708667250369587, 35.822879070320127 ], [ 128.709064761892563, 35.821598336848922 ], [ 128.709454003565583, 35.821229908121929 ], [ 128.709595464654825, 35.821096010524968 ], [ 128.71069575526775, 35.820438038110005 ], [ 128.712136356335549, 35.819382784070555 ], [ 128.713210539177254, 35.818236156469446 ], [ 128.713585969865392, 35.817831217305219 ], [ 128.713885360135038, 35.817508177954352 ], [ 128.714091143939413, 35.816851079975137 ], [ 128.714127106159395, 35.816171914998677 ], [ 128.714122182446289, 35.815378226956263 ], [ 128.714141297745073, 35.815302513968987 ], [ 128.714850491017074, 35.812659881222046 ], [ 128.715840195394122, 35.809347592264153 ], [ 128.716577312875728, 35.808727761259739 ], [ 128.71752061400224, 35.806847075109317 ], [ 128.716849253786648, 35.80664397143407 ], [ 128.710242502855806, 35.804290377871375 ], [ 128.710160387172749, 35.804245540565731 ], [ 128.707788596386791, 35.80251950023689 ], [ 128.707771401677462, 35.802493123845501 ], [ 128.707726833844248, 35.802392191150467 ], [ 128.706029063798951, 35.799936619294485 ], [ 128.705430677061372, 35.799783625306681 ], [ 128.70387135027562, 35.799312245697486 ], [ 128.703595002323226, 35.799154309505916 ], [ 128.702628052006759, 35.798601675603642 ], [ 128.702574604659731, 35.798564935211544 ], [ 128.700628638422813, 35.796949507093146 ], [ 128.700607832838273, 35.796920026443246 ], [ 128.700493841053316, 35.796758499592492 ], [ 128.700406529041544, 35.796627036575359 ], [ 128.70034822000963, 35.796230617756052 ], [ 128.700334829184357, 35.795748132656549 ], [ 128.700306270485896, 35.795436848740273 ], [ 128.700233814196991, 35.795353863888884 ], [ 128.69980854729576, 35.795049047860878 ], [ 128.69747084826048, 35.794351444236185 ], [ 128.696532121025143, 35.794576637437189 ], [ 128.695544645622789, 35.795298230731611 ], [ 128.69496243087454, 35.795988456710916 ], [ 128.694564424530824, 35.796780267879505 ], [ 128.693306728507139, 35.796788319145492 ], [ 128.692660730293511, 35.79657781903876 ], [ 128.691257004180414, 35.795687312184505 ], [ 128.691098683425594, 35.795373439258661 ], [ 128.691026306260028, 35.795051338103278 ], [ 128.690964595373799, 35.794422732240847 ], [ 128.690893097186745, 35.794193390397758 ], [ 128.690444980097055, 35.793419550241474 ], [ 128.690217262543968, 35.793129855147249 ], [ 128.689767942143447, 35.79275734798896 ], [ 128.68923907484006, 35.792620391366114 ], [ 128.688316154015837, 35.792381383319487 ], [ 128.688026744020448, 35.792311342155401 ], [ 128.687277880396493, 35.792296572160993 ], [ 128.682511703735941, 35.790148617084846 ], [ 128.682501967439208, 35.790131299122159 ], [ 128.681348651381967, 35.790813301105111 ], [ 128.678658378143012, 35.793036124842324 ], [ 128.67660902231458, 35.793792935986261 ], [ 128.677107939793757, 35.794040239651018 ], [ 128.677914810579153, 35.795376670670258 ], [ 128.677902402455032, 35.797491093161092 ], [ 128.677887666940961, 35.798777798361478 ], [ 128.67750244463042, 35.801452861681199 ], [ 128.677271969100531, 35.802286247959266 ], [ 128.678459794569363, 35.802946499513254 ], [ 128.681169422508816, 35.804122498926873 ], [ 128.68330455936777, 35.805921756893895 ], [ 128.684441276315994, 35.807050940655692 ], [ 128.686288463862354, 35.809094344666406 ], [ 128.686330856922694, 35.809187084643611 ], [ 128.686213491605258, 35.809600689326075 ], [ 128.686190393611497, 35.8096805377766 ], [ 128.685794299550423, 35.810256692287226 ], [ 128.685470326990497, 35.81066052919801 ], [ 128.685907340418396, 35.811291426108632 ], [ 128.686235794546349, 35.811599472570094 ], [ 128.687673624305631, 35.811846642128614 ], [ 128.688270329441679, 35.811919854836013 ], [ 128.688282232014245, 35.811921314899791 ], [ 128.689456498954286, 35.812018587299605 ], [ 128.689706242319232, 35.811992931098175 ], [ 128.690486879932905, 35.811895110765619 ], [ 128.691825676285134, 35.812460746334949 ], [ 128.694597063015152, 35.814477125589214 ], [ 128.696272083566726, 35.816892578456503 ], [ 128.696548721126362, 35.817802713150108 ], [ 128.697315461069394, 35.82073281572994 ], [ 128.698431009905221, 35.821345633572221 ], [ 128.699047695607732, 35.821861245269496 ], [ 128.700099644326997, 35.822754379380832 ], [ 128.700131396051887, 35.822812833096499 ], [ 128.701389713949879, 35.826223717979666 ], [ 128.703894539074071, 35.833951752788742 ], [ 128.703952400148125, 35.834133738233113 ], [ 128.703975353503694, 35.834225916872029 ], [ 128.703978526016328, 35.834271162139807 ], [ 128.703980037415221, 35.834316234723367 ], [ 128.703979932346073, 35.834320272043115 ], [ 128.703930001347061, 35.836162056299727 ], [ 128.703885735243745, 35.83779482068519 ], [ 128.703785358229766, 35.837807083125909 ], [ 128.703739583734546, 35.837797507369878 ], [ 128.703709582389791, 35.837791010177291 ], [ 128.703684950301863, 35.837786081993002 ], [ 128.703559525532626, 35.837789062099105 ], [ 128.703630618682183, 35.840323890214606 ], [ 128.703651703848521, 35.841000220530994 ], [ 128.703657678792524, 35.841136980702977 ], [ 128.703658886917935, 35.841164615693721 ], [ 128.705607600678235, 35.840705657480726 ] ] ] } },
{ "type": "Feature", "properties": { "adm_cd": "22060720", "adm_name": "대구광역시 수성구 고산2동", "population": 25828, "elderly_population": 4798, "temperature": 26.1, "humidity": 52.0, "weather_base_date": "20260811", "weather_base_time": "0900", "weather_source": "KMA observation T1H/REH" }, "geometry": { "type": "Polygon", "coordinates": [ [ [ 128.676281579929537, 35.872680347991036 ], [ 128.677002560292863, 35.871777368311392 ], [ 128.677424511144125, 35.871248889383381 ], [ 128.677535359932989, 35.871110052580676 ], [ 128.677706681453202, 35.870868702141401 ], [ 128.678155913582145, 35.870061630920702 ], [ 128.678285161847754, 35.8696610361553 ], [ 128.678464095302587, 35.869317137554177 ], [ 128.679140087586575, 35.868017906302811 ], [ 128.679890869570102, 35.86669434743002 ], [ 128.680237844848392, 35.863411549758986 ], [ 128.679978418741342, 35.862741991192216 ], [ 128.680023874812605, 35.862144463992635 ], [ 128.68039485277481, 35.861647791548101 ], [ 128.680787013176655, 35.861227429213841 ], [ 128.681481359491045, 35.860677511232275 ], [ 128.681974156998535, 35.860370535508835 ], [ 128.685361212478909, 35.859155279790535 ], [ 128.68549818474176, 35.859114699764504 ], [ 128.686021988661963, 35.858967013716182 ], [ 128.686159058911983, 35.85897326772978 ], [ 128.686742551741929, 35.85901150548159 ], [ 128.691214323874419, 35.858867962418508 ], [ 128.694458799987984, 35.858762441069828 ], [ 128.697898004803818, 35.858583612880309 ], [ 128.699622373666813, 35.857772165813046 ], [ 128.701776298516961, 35.855187342121454 ], [ 128.701594932225987, 35.854263980228716 ], [ 128.7015624423193, 35.854165188375717 ], [ 128.701540435796147, 35.854114126297077 ], [ 128.701371293395567, 35.853858781250473 ], [ 128.701340368421143, 35.853839827892024 ], [ 128.70125832472948, 35.853792233021181 ], [ 128.701248984412018, 35.853787219110913 ], [ 128.700017063448257, 35.852722886633757 ], [ 128.698790266850921, 35.851329406371867 ], [ 128.698745514601569, 35.851241093075323 ], [ 128.69849314825845, 35.850384775674591 ], [ 128.698479038068399, 35.850273370700975 ], [ 128.701009463997934, 35.848450274215075 ], [ 128.701195404303888, 35.848381871662276 ], [ 128.702403498549245, 35.84814768419281 ], [ 128.703195912268995, 35.848008439993507 ], [ 128.703387903680266, 35.848104431395981 ], [ 128.70354488928578, 35.848182918769709 ], [ 128.703548092337456, 35.848147421343462 ], [ 128.703665564866782, 35.846844712035775 ], [ 128.702879471203119, 35.845522139709907 ], [ 128.702798365775749, 35.845390607931343 ], [ 128.702091343407375, 35.844501917617052 ], [ 128.702050736482477, 35.844469903051149 ], [ 128.701345127882263, 35.843922725529907 ], [ 128.701259126352028, 35.843864942820822 ], [ 128.701138712700072, 35.8437851202481 ], [ 128.701057955230965, 35.843738478676521 ], [ 128.700998733860615, 35.843705604908713 ], [ 128.700928702488198, 35.843670769185437 ], [ 128.700831465769028, 35.84362935169284 ], [ 128.7007545462682, 35.843601207530781 ], [ 128.700704988526809, 35.843587077742889 ], [ 128.700650333141283, 35.843571495078777 ], [ 128.700605080051361, 35.843563945059373 ], [ 128.699510046168513, 35.84333289445086 ], [ 128.699500244309974, 35.843303464561409 ], [ 128.699154757295361, 35.8422660888818 ], [ 128.703658886917935, 35.841164615693721 ], [ 128.703657678792524, 35.841136980702977 ], [ 128.703651703848521, 35.841000220530994 ], [ 128.703630618682183, 35.840323890214606 ], [ 128.703559525532626, 35.837789062099105 ], [ 128.703684950301863, 35.837786081993002 ], [ 128.703709582389791, 35.837791010177291 ], [ 128.703739583734546, 35.837797507369878 ], [ 128.703785358229766, 35.837807083125909 ], [ 128.703885735243745, 35.83779482068519 ], [ 128.703930001347061, 35.836162056299727 ], [ 128.703979932346073, 35.834320272043115 ], [ 128.703980037415221, 35.834316234723367 ], [ 128.703978526016328, 35.834271162139807 ], [ 128.703975353503694, 35.834225916872029 ], [ 128.703952400148125, 35.834133738233113 ], [ 128.703894539074071, 35.833951752788742 ], [ 128.701389713949879, 35.826223717979666 ], [ 128.700131396051887, 35.822812833096499 ], [ 128.700099644326997, 35.822754379380832 ], [ 128.699047695607732, 35.821861245269496 ], [ 128.698431009905221, 35.821345633572221 ], [ 128.697315461069394, 35.82073281572994 ], [ 128.696548721126362, 35.817802713150108 ], [ 128.696272083566726, 35.816892578456503 ], [ 128.694597063015152, 35.814477125589214 ], [ 128.691825676285134, 35.812460746334949 ], [ 128.690486879932905, 35.811895110765619 ], [ 128.689706242319232, 35.811992931098175 ], [ 128.689456498954286, 35.812018587299605 ], [ 128.688282232014245, 35.811921314899791 ], [ 128.688270329441679, 35.811919854836013 ], [ 128.687673624305631, 35.811846642128614 ], [ 128.686235794546349, 35.811599472570094 ], [ 128.685907340418396, 35.811291426108632 ], [ 128.685470326990497, 35.81066052919801 ], [ 128.685794299550423, 35.810256692287226 ], [ 128.686190393611497, 35.8096805377766 ], [ 128.686213491605258, 35.809600689326075 ], [ 128.686330856922694, 35.809187084643611 ], [ 128.686288463862354, 35.809094344666406 ], [ 128.684441276315994, 35.807050940655692 ], [ 128.68330455936777, 35.805921756893895 ], [ 128.681169422508816, 35.804122498926873 ], [ 128.678459794569363, 35.802946499513254 ], [ 128.677271969100531, 35.802286247959266 ], [ 128.676439158797052, 35.802458126773047 ], [ 128.673437177328481, 35.803065637080621 ], [ 128.672130226676529, 35.803232704808835 ], [ 128.670060635510367, 35.806564366946859 ], [ 128.670271286619197, 35.807890133760644 ], [ 128.671072884162385, 35.809581521352648 ], [ 128.672573698184749, 35.812261969855989 ], [ 128.672996736559668, 35.814653614494688 ], [ 128.672833139235763, 35.815158996691849 ], [ 128.672594425879367, 35.81535583059518 ], [ 128.671439630994627, 35.816307997403236 ], [ 128.670910949438735, 35.816683869498505 ], [ 128.670664434579749, 35.816828032416474 ], [ 128.669743388958352, 35.817230629974162 ], [ 128.669325062501656, 35.817401528301552 ], [ 128.668537549836515, 35.817709220011764 ], [ 128.666188569754951, 35.818345498232929 ], [ 128.659710697341495, 35.819259799185751 ], [ 128.657804942032783, 35.819294362129703 ], [ 128.657337425882872, 35.819261742119124 ], [ 128.656839659739148, 35.819168336852833 ], [ 128.656743450060873, 35.819248015293404 ], [ 128.656247756079864, 35.819658545249389 ], [ 128.655816437477284, 35.820020960669297 ], [ 128.655538714079796, 35.820395704460807 ], [ 128.65532620652931, 35.820884135326978 ], [ 128.655243480373287, 35.821194267643229 ], [ 128.655267517772046, 35.821715277070645 ], [ 128.655281984372181, 35.821769399483131 ], [ 128.655356187439622, 35.822367003029363 ], [ 128.655331721488437, 35.823158213570686 ], [ 128.655330157120574, 35.823166068599008 ], [ 128.654867179978453, 35.824570883253536 ], [ 128.654066299677766, 35.825322170946713 ], [ 128.653765101895317, 35.825593422918637 ], [ 128.652253441596201, 35.82711467851199 ], [ 128.652166001416646, 35.827907043625942 ], [ 128.652796841996604, 35.829271725647253 ], [ 128.653253698495035, 35.830555045192845 ], [ 128.652685615793814, 35.831433939491312 ], [ 128.652306955294932, 35.832000947962129 ], [ 128.652032281714469, 35.832365430492253 ], [ 128.649356643093029, 35.835561063105409 ], [ 128.649208164341047, 35.835655008625416 ], [ 128.649000655522997, 35.835786300316563 ], [ 128.647974787427387, 35.836182013054461 ], [ 128.647540193571984, 35.836238318477029 ], [ 128.647378911110195, 35.836259212376575 ], [ 128.64708727395805, 35.836296998881927 ], [ 128.646689002769392, 35.836807702233479 ], [ 128.645830786107524, 35.84053980570647 ], [ 128.645997221017382, 35.840896699061332 ], [ 128.646208236337571, 35.841245343157901 ], [ 128.646843530312083, 35.841366108470169 ], [ 128.650559393990193, 35.842760506480062 ], [ 128.650859500255279, 35.842922670298876 ], [ 128.651059279998918, 35.843044558919438 ], [ 128.654357800378193, 35.845425438693518 ], [ 128.655846289624691, 35.846556015763269 ], [ 128.658545649087245, 35.848666186129932 ], [ 128.660712398794601, 35.851610681103651 ], [ 128.660361952818732, 35.852891375704679 ], [ 128.660304040636163, 35.853010310482837 ], [ 128.660259566617157, 35.853101645886142 ], [ 128.660198885024329, 35.853146740909516 ], [ 128.661553451166753, 35.855502064290015 ], [ 128.659010765255914, 35.856748080199957 ], [ 128.658929447811914, 35.856759906947026 ], [ 128.658443095065024, 35.856823620820407 ], [ 128.656930618117286, 35.858743947751215 ], [ 128.656250555256463, 35.861011281818648 ], [ 128.658231234570337, 35.86178006252257 ], [ 128.65878802770186, 35.861924704813248 ], [ 128.659412448029769, 35.862223928185308 ], [ 128.660905291092575, 35.864154840892979 ], [ 128.661732809868596, 35.865271048125862 ], [ 128.66242819408356, 35.86641407355517 ], [ 128.662640426922422, 35.866950650514454 ], [ 128.662466836390621, 35.867638311636213 ], [ 128.662282357517512, 35.867787973522837 ], [ 128.662090850551266, 35.867996756818449 ], [ 128.661949849976907, 35.868323710413712 ], [ 128.662082326715506, 35.870474567045925 ], [ 128.662390928857377, 35.872526084555567 ], [ 128.66443607123793, 35.872276096275307 ], [ 128.666083752358134, 35.872662258512342 ], [ 128.666205617028737, 35.872639905084576 ], [ 128.667304860495904, 35.87243827013986 ], [ 128.667362771456567, 35.872428388872017 ], [ 128.671975739431474, 35.872885212228027 ], [ 128.67233857831971, 35.873018262253552 ], [ 128.672890948343166, 35.873226103488449 ], [ 128.673106196137496, 35.873831705469378 ], [ 128.676281579929537, 35.872680347991036 ] ] ] } },
{ "type": "Feature", "properties": { "adm_cd": "22060730", "adm_name": "대구광역시 수성구 고산3동", "population": 29462, "elderly_population": 5449, "temperature": 27.5, "humidity": 51.0, "weather_base_date": "20260811", "weather_base_time": "0900", "weather_source": "KMA observation T1H/REH" }, "geometry": { "type": "Polygon", "coordinates": [ [ [ 128.716921298717892, 35.860798664384284 ], [ 128.72411313926338, 35.859942112519519 ], [ 128.725907183858567, 35.857941833734493 ], [ 128.725597500097564, 35.857726837202961 ], [ 128.725103880348485, 35.857818472280449 ], [ 128.724794328272566, 35.857939403588759 ], [ 128.724351485754596, 35.857999250316396 ], [ 128.72414554461281, 35.857983299050012 ], [ 128.723053515191395, 35.857868897847951 ], [ 128.7229938270969, 35.85784440722766 ], [ 128.721874092045368, 35.856947790552617 ], [ 128.722744780156916, 35.855445153666494 ], [ 128.72371769943905, 35.854973548749662 ], [ 128.724161777809428, 35.854813195990019 ], [ 128.724407176563915, 35.854630549993239 ], [ 128.725424159101607, 35.853813336981979 ], [ 128.725448373263674, 35.853768036781595 ], [ 128.725445772957301, 35.853757237479257 ], [ 128.725431674011361, 35.85369870924383 ], [ 128.725625606803931, 35.85090103386635 ], [ 128.726533535528773, 35.848005485096913 ], [ 128.726871570213007, 35.847212430326387 ], [ 128.726965112367623, 35.846501035039267 ], [ 128.726752473595639, 35.844572868628198 ], [ 128.726728956172906, 35.844429165993603 ], [ 128.726303278618104, 35.842511332833169 ], [ 128.72579665789732, 35.84194882161043 ], [ 128.724381988768926, 35.840210673043153 ], [ 128.724090736212162, 35.839439739933198 ], [ 128.724070676227541, 35.83846484847659 ], [ 128.724085445751626, 35.838396063655779 ], [ 128.724121647062731, 35.838327980086461 ], [ 128.724242238671735, 35.838130095659118 ], [ 128.724372074159817, 35.837969202324686 ], [ 128.724501909142759, 35.837808309757442 ], [ 128.724586775380573, 35.837686413147878 ], [ 128.725198865884721, 35.836511671957176 ], [ 128.72517394781076, 35.836424480728184 ], [ 128.725165043105534, 35.83639332366976 ], [ 128.725079726218212, 35.8361585661494 ], [ 128.72500970105321, 35.836001948098527 ], [ 128.724175985544036, 35.835626204936148 ], [ 128.721993940513102, 35.834721734155295 ], [ 128.721921419876423, 35.834702821333799 ], [ 128.721801637518098, 35.834671583338647 ], [ 128.721713786262939, 35.834677150199134 ], [ 128.721696711870663, 35.83467823976995 ], [ 128.721556602929098, 35.834883842735685 ], [ 128.721461145447677, 35.835050551203828 ], [ 128.721100483226934, 35.835621687409152 ], [ 128.721012053993434, 35.835681293388262 ], [ 128.720995469365249, 35.835692466276171 ], [ 128.72096190661, 35.835712398976646 ], [ 128.720929310411321, 35.835731754769597 ], [ 128.720417368435392, 35.836017678489434 ], [ 128.720225037461432, 35.836031270756415 ], [ 128.719770113744403, 35.836058278672091 ], [ 128.719188888561604, 35.835856894518685 ], [ 128.717176059718099, 35.836347695767017 ], [ 128.71581285360142, 35.836681110962566 ], [ 128.712697641743006, 35.837937026971716 ], [ 128.712510356441385, 35.83802109185617 ], [ 128.712503751353438, 35.838024177812365 ], [ 128.709675737736688, 35.839346930573015 ], [ 128.708452360373855, 35.839919271823206 ], [ 128.708329015069182, 35.839977212844047 ], [ 128.708078744287974, 35.840094776743406 ], [ 128.706652454693824, 35.840649338870556 ], [ 128.705607600678235, 35.840705657480726 ], [ 128.703658886917935, 35.841164615693721 ], [ 128.699154757295361, 35.8422660888818 ], [ 128.699500244309974, 35.843303464561409 ], [ 128.699510046168513, 35.84333289445086 ], [ 128.700605080051361, 35.843563945059373 ], [ 128.700650333141283, 35.843571495078777 ], [ 128.700704988526809, 35.843587077742889 ], [ 128.7007545462682, 35.843601207530781 ], [ 128.700831465769028, 35.84362935169284 ], [ 128.700928702488198, 35.843670769185437 ], [ 128.700998733860615, 35.843705604908713 ], [ 128.701057955230965, 35.843738478676521 ], [ 128.701138712700072, 35.8437851202481 ], [ 128.701259126352028, 35.843864942820822 ], [ 128.701345127882263, 35.843922725529907 ], [ 128.702050736482477, 35.844469903051149 ], [ 128.702091343407375, 35.844501917617052 ], [ 128.702798365775749, 35.845390607931343 ], [ 128.702879471203119, 35.845522139709907 ], [ 128.703665564866782, 35.846844712035775 ], [ 128.703548092337456, 35.848147421343462 ], [ 128.70354488928578, 35.848182918769709 ], [ 128.703387903680266, 35.848104431395981 ], [ 128.703195912268995, 35.848008439993507 ], [ 128.702403498549245, 35.84814768419281 ], [ 128.701195404303888, 35.848381871662276 ], [ 128.701009463997934, 35.848450274215075 ], [ 128.698479038068399, 35.850273370700975 ], [ 128.69849314825845, 35.850384775674591 ], [ 128.698745514601569, 35.851241093075323 ], [ 128.698790266850921, 35.851329406371867 ], [ 128.700017063448257, 35.852722886633757 ], [ 128.701248984412018, 35.853787219110913 ], [ 128.70125832472948, 35.853792233021181 ], [ 128.701340368421143, 35.853839827892024 ], [ 128.701371293395567, 35.853858781250473 ], [ 128.701540435796147, 35.854114126297077 ], [ 128.7015624423193, 35.854165188375717 ], [ 128.701594932225987, 35.854263980228716 ], [ 128.701776298516961, 35.855187342121454 ], [ 128.699622373666813, 35.857772165813046 ], [ 128.703745159948824, 35.857588831919735 ], [ 128.705880800711043, 35.858132441372042 ], [ 128.710343072932517, 35.860284703486535 ], [ 128.711136776482704, 35.860700679588511 ], [ 128.711171329327669, 35.860714403547817 ], [ 128.711433913334133, 35.860818687094962 ], [ 128.712747774121823, 35.860810742485903 ], [ 128.71303702114659, 35.860797028746454 ], [ 128.713114289535838, 35.860794796995108 ], [ 128.713273943716473, 35.86079328562888 ], [ 128.713451041356109, 35.860792216318004 ], [ 128.71460764639653, 35.860790021110674 ], [ 128.7150886318272, 35.860861868226777 ], [ 128.715635767149934, 35.861227675446557 ], [ 128.716921298717892, 35.860798664384284 ] ] ] } }
]
}

